<?xml version="1.0" encoding="UTF-8" ?>
<gpx
 version="1.0"
 xmlns:xsi="http://www.w3.org/2001/XMLSchema-instance"
 xmlns="http://www.topografix.com/GPX/1/0"
 xsi:schemaLocation="http://www.topografix.com/GPX/1/0 http://www.topografix.com/GPX/1/0/gpx.xsd"
 creator="www.runtrail.fr">
	<trk>
		<name>1er Challenge sur route de France</name>
	    <trkseg>
	    				<trkpt lat="48.67149" lon="1.98075">
			<ele>169</ele>			<time>2025-02-27T19:14:54Z</time>
			</trkpt>
						<trkpt lat="48.67202" lon="1.97935">
			<ele>168</ele>			<time>2025-02-27T19:14:54Z</time>
			</trkpt>
						<trkpt lat="48.67222" lon="1.97879">
			<ele>168</ele>			<time>2025-02-27T19:14:54Z</time>
			</trkpt>
						<trkpt lat="48.67256" lon="1.97774">
			<ele>168</ele>			<time>2025-02-27T19:14:54Z</time>
			</trkpt>
						<trkpt lat="48.6728" lon="1.97697">
			<ele>169</ele>			<time>2025-02-27T19:14:54Z</time>
			</trkpt>
						<trkpt lat="48.67316" lon="1.97551">
			<ele>168</ele>			<time>2025-02-27T19:14:54Z</time>
			</trkpt>
						<trkpt lat="48.67343" lon="1.97454">
			<ele>168</ele>			<time>2025-02-27T19:14:54Z</time>
			</trkpt>
						<trkpt lat="48.67355" lon="1.97434">
			<ele>168</ele>			<time>2025-02-27T19:14:54Z</time>
			</trkpt>
						<trkpt lat="48.67354" lon="1.97414">
			<ele>168</ele>			<time>2025-02-27T19:14:54Z</time>
			</trkpt>
						<trkpt lat="48.67353" lon="1.97363">
			<ele>167</ele>			<time>2025-02-27T19:14:54Z</time>
			</trkpt>
						<trkpt lat="48.67341" lon="1.97351">
			<ele>167</ele>			<time>2025-02-27T19:14:54Z</time>
			</trkpt>
						<trkpt lat="48.67319" lon="1.97323">
			<ele>165</ele>			<time>2025-02-27T19:14:54Z</time>
			</trkpt>
						<trkpt lat="48.67295" lon="1.97303">
			<ele>164</ele>			<time>2025-02-27T19:14:54Z</time>
			</trkpt>
						<trkpt lat="48.67277" lon="1.97297">
			<ele>164</ele>			<time>2025-02-27T19:14:54Z</time>
			</trkpt>
						<trkpt lat="48.67242" lon="1.97286">
			<ele>163</ele>			<time>2025-02-27T19:14:54Z</time>
			</trkpt>
						<trkpt lat="48.67215" lon="1.97271">
			<ele>164</ele>			<time>2025-02-27T19:14:54Z</time>
			</trkpt>
						<trkpt lat="48.67096" lon="1.972">
			<ele>167</ele>			<time>2025-02-27T19:14:54Z</time>
			</trkpt>
						<trkpt lat="48.66997" lon="1.97134">
			<ele>168</ele>			<time>2025-02-27T19:14:54Z</time>
			</trkpt>
						<trkpt lat="48.66901" lon="1.97065">
			<ele>171</ele>			<time>2025-02-27T19:14:54Z</time>
			</trkpt>
						<trkpt lat="48.66882" lon="1.97053">
			<ele>171</ele>			<time>2025-02-27T19:14:54Z</time>
			</trkpt>
						<trkpt lat="48.6685" lon="1.97039">
			<ele>172</ele>			<time>2025-02-27T19:14:54Z</time>
			</trkpt>
						<trkpt lat="48.66827" lon="1.97031">
			<ele>172</ele>			<time>2025-02-27T19:14:54Z</time>
			</trkpt>
						<trkpt lat="48.66731" lon="1.97008">
			<ele>172</ele>			<time>2025-02-27T19:14:54Z</time>
			</trkpt>
						<trkpt lat="48.6671" lon="1.97">
			<ele>172</ele>			<time>2025-02-27T19:14:54Z</time>
			</trkpt>
						<trkpt lat="48.66697" lon="1.96993">
			<ele>171</ele>			<time>2025-02-27T19:14:54Z</time>
			</trkpt>
						<trkpt lat="48.66675" lon="1.96972">
			<ele>171</ele>			<time>2025-02-27T19:14:54Z</time>
			</trkpt>
						<trkpt lat="48.66648" lon="1.96943">
			<ele>171</ele>			<time>2025-02-27T19:14:54Z</time>
			</trkpt>
						<trkpt lat="48.66569" lon="1.96873">
			<ele>172</ele>			<time>2025-02-27T19:14:54Z</time>
			</trkpt>
						<trkpt lat="48.66444" lon="1.96767">
			<ele>171</ele>			<time>2025-02-27T19:14:54Z</time>
			</trkpt>
						<trkpt lat="48.66329" lon="1.96667">
			<ele>171</ele>			<time>2025-02-27T19:14:54Z</time>
			</trkpt>
						<trkpt lat="48.66249" lon="1.96606">
			<ele>168</ele>			<time>2025-02-27T19:14:54Z</time>
			</trkpt>
						<trkpt lat="48.66233" lon="1.96596">
			<ele>168</ele>			<time>2025-02-27T19:14:54Z</time>
			</trkpt>
						<trkpt lat="48.66183" lon="1.96578">
			<ele>169</ele>			<time>2025-02-27T19:14:54Z</time>
			</trkpt>
						<trkpt lat="48.66093" lon="1.96553">
			<ele>170</ele>			<time>2025-02-27T19:14:54Z</time>
			</trkpt>
						<trkpt lat="48.66015" lon="1.96532">
			<ele>170</ele>			<time>2025-02-27T19:14:54Z</time>
			</trkpt>
						<trkpt lat="48.65866" lon="1.96511">
			<ele>172</ele>			<time>2025-02-27T19:14:54Z</time>
			</trkpt>
						<trkpt lat="48.65821" lon="1.96505">
			<ele>173</ele>			<time>2025-02-27T19:14:54Z</time>
			</trkpt>
						<trkpt lat="48.65799" lon="1.96497">
			<ele>174</ele>			<time>2025-02-27T19:14:54Z</time>
			</trkpt>
						<trkpt lat="48.65737" lon="1.96464">
			<ele>175</ele>			<time>2025-02-27T19:14:54Z</time>
			</trkpt>
						<trkpt lat="48.65725" lon="1.9646">
			<ele>175</ele>			<time>2025-02-27T19:14:54Z</time>
			</trkpt>
						<trkpt lat="48.6571" lon="1.96459">
			<ele>175</ele>			<time>2025-02-27T19:14:54Z</time>
			</trkpt>
						<trkpt lat="48.65687" lon="1.96462">
			<ele>174</ele>			<time>2025-02-27T19:14:54Z</time>
			</trkpt>
						<trkpt lat="48.65588" lon="1.96487">
			<ele>172</ele>			<time>2025-02-27T19:14:54Z</time>
			</trkpt>
						<trkpt lat="48.65538" lon="1.96504">
			<ele>172</ele>			<time>2025-02-27T19:14:54Z</time>
			</trkpt>
						<trkpt lat="48.6551" lon="1.96509">
			<ele>172</ele>			<time>2025-02-27T19:14:54Z</time>
			</trkpt>
						<trkpt lat="48.65482" lon="1.96506">
			<ele>172</ele>			<time>2025-02-27T19:14:54Z</time>
			</trkpt>
						<trkpt lat="48.65468" lon="1.96501">
			<ele>173</ele>			<time>2025-02-27T19:14:54Z</time>
			</trkpt>
						<trkpt lat="48.65433" lon="1.96481">
			<ele>173</ele>			<time>2025-02-27T19:14:54Z</time>
			</trkpt>
						<trkpt lat="48.65379" lon="1.96451">
			<ele>172</ele>			<time>2025-02-27T19:14:54Z</time>
			</trkpt>
						<trkpt lat="48.65352" lon="1.96432">
			<ele>171</ele>			<time>2025-02-27T19:14:54Z</time>
			</trkpt>
						<trkpt lat="48.6532" lon="1.96419">
			<ele>170</ele>			<time>2025-02-27T19:14:54Z</time>
			</trkpt>
						<trkpt lat="48.65296" lon="1.96421">
			<ele>171</ele>			<time>2025-02-27T19:14:54Z</time>
			</trkpt>
						<trkpt lat="48.65264" lon="1.96432">
			<ele>172</ele>			<time>2025-02-27T19:14:54Z</time>
			</trkpt>
						<trkpt lat="48.65229" lon="1.96449">
			<ele>172</ele>			<time>2025-02-27T19:14:54Z</time>
			</trkpt>
						<trkpt lat="48.65197" lon="1.9647">
			<ele>173</ele>			<time>2025-02-27T19:14:54Z</time>
			</trkpt>
						<trkpt lat="48.65127" lon="1.96523">
			<ele>172</ele>			<time>2025-02-27T19:14:54Z</time>
			</trkpt>
						<trkpt lat="48.651" lon="1.96543">
			<ele>172</ele>			<time>2025-02-27T19:14:54Z</time>
			</trkpt>
						<trkpt lat="48.65067" lon="1.96563">
			<ele>171</ele>			<time>2025-02-27T19:14:54Z</time>
			</trkpt>
						<trkpt lat="48.65025" lon="1.9658">
			<ele>170</ele>			<time>2025-02-27T19:14:54Z</time>
			</trkpt>
						<trkpt lat="48.64951" lon="1.96596">
			<ele>171</ele>			<time>2025-02-27T19:14:54Z</time>
			</trkpt>
						<trkpt lat="48.64862" lon="1.96618">
			<ele>172</ele>			<time>2025-02-27T19:14:54Z</time>
			</trkpt>
						<trkpt lat="48.64758" lon="1.96662">
			<ele>172</ele>			<time>2025-02-27T19:14:54Z</time>
			</trkpt>
						<trkpt lat="48.64743" lon="1.96666">
			<ele>172</ele>			<time>2025-02-27T19:14:54Z</time>
			</trkpt>
						<trkpt lat="48.64702" lon="1.96667">
			<ele>172</ele>			<time>2025-02-27T19:14:54Z</time>
			</trkpt>
						<trkpt lat="48.64674" lon="1.9667">
			<ele>172</ele>			<time>2025-02-27T19:14:54Z</time>
			</trkpt>
						<trkpt lat="48.64649" lon="1.96681">
			<ele>172</ele>			<time>2025-02-27T19:14:54Z</time>
			</trkpt>
						<trkpt lat="48.64629" lon="1.967">
			<ele>172</ele>			<time>2025-02-27T19:14:54Z</time>
			</trkpt>
						<trkpt lat="48.64587" lon="1.96754">
			<ele>171</ele>			<time>2025-02-27T19:14:54Z</time>
			</trkpt>
						<trkpt lat="48.6453" lon="1.96699">
			<ele>173</ele>			<time>2025-02-27T19:14:54Z</time>
			</trkpt>
						<trkpt lat="48.64513" lon="1.96685">
			<ele>173</ele>			<time>2025-02-27T19:14:54Z</time>
			</trkpt>
						<trkpt lat="48.64497" lon="1.96677">
			<ele>173</ele>			<time>2025-02-27T19:14:54Z</time>
			</trkpt>
						<trkpt lat="48.64467" lon="1.96672">
			<ele>174</ele>			<time>2025-02-27T19:14:54Z</time>
			</trkpt>
						<trkpt lat="48.6441" lon="1.96675">
			<ele>175</ele>			<time>2025-02-27T19:14:54Z</time>
			</trkpt>
						<trkpt lat="48.64372" lon="1.96673">
			<ele>174</ele>			<time>2025-02-27T19:14:54Z</time>
			</trkpt>
						<trkpt lat="48.64269" lon="1.96639">
			<ele>175</ele>			<time>2025-02-27T19:14:54Z</time>
			</trkpt>
						<trkpt lat="48.64255" lon="1.96631">
			<ele>175</ele>			<time>2025-02-27T19:14:54Z</time>
			</trkpt>
						<trkpt lat="48.64235" lon="1.96667">
			<ele>175</ele>			<time>2025-02-27T19:14:54Z</time>
			</trkpt>
						<trkpt lat="48.64204" lon="1.96742">
			<ele>174</ele>			<time>2025-02-27T19:14:54Z</time>
			</trkpt>
						<trkpt lat="48.64165" lon="1.96803">
			<ele>174</ele>			<time>2025-02-27T19:14:54Z</time>
			</trkpt>
						<trkpt lat="48.64135" lon="1.96854">
			<ele>173</ele>			<time>2025-02-27T19:14:54Z</time>
			</trkpt>
						<trkpt lat="48.64126" lon="1.96861">
			<ele>173</ele>			<time>2025-02-27T19:14:54Z</time>
			</trkpt>
						<trkpt lat="48.64107" lon="1.96865">
			<ele>172</ele>			<time>2025-02-27T19:14:54Z</time>
			</trkpt>
						<trkpt lat="48.64032" lon="1.96873">
			<ele>171</ele>			<time>2025-02-27T19:14:54Z</time>
			</trkpt>
						<trkpt lat="48.64012" lon="1.96878">
			<ele>171</ele>			<time>2025-02-27T19:14:54Z</time>
			</trkpt>
						<trkpt lat="48.63994" lon="1.96886">
			<ele>171</ele>			<time>2025-02-27T19:14:54Z</time>
			</trkpt>
						<trkpt lat="48.63896" lon="1.96942">
			<ele>171</ele>			<time>2025-02-27T19:14:54Z</time>
			</trkpt>
						<trkpt lat="48.63849" lon="1.96973">
			<ele>170</ele>			<time>2025-02-27T19:14:54Z</time>
			</trkpt>
						<trkpt lat="48.63836" lon="1.96985">
			<ele>170</ele>			<time>2025-02-27T19:14:54Z</time>
			</trkpt>
						<trkpt lat="48.63825" lon="1.97001">
			<ele>170</ele>			<time>2025-02-27T19:14:54Z</time>
			</trkpt>
						<trkpt lat="48.63816" lon="1.97021">
			<ele>169</ele>			<time>2025-02-27T19:14:54Z</time>
			</trkpt>
						<trkpt lat="48.63806" lon="1.97052">
			<ele>169</ele>			<time>2025-02-27T19:14:54Z</time>
			</trkpt>
						<trkpt lat="48.63796" lon="1.97142">
			<ele>166</ele>			<time>2025-02-27T19:14:54Z</time>
			</trkpt>
						<trkpt lat="48.63783" lon="1.97231">
			<ele>162</ele>			<time>2025-02-27T19:14:54Z</time>
			</trkpt>
						<trkpt lat="48.63761" lon="1.97346">
			<ele>155</ele>			<time>2025-02-27T19:14:54Z</time>
			</trkpt>
						<trkpt lat="48.63745" lon="1.97409">
			<ele>148</ele>			<time>2025-02-27T19:14:54Z</time>
			</trkpt>
						<trkpt lat="48.63732" lon="1.97452">
			<ele>145</ele>			<time>2025-02-27T19:14:54Z</time>
			</trkpt>
						<trkpt lat="48.637" lon="1.97532">
			<ele>140</ele>			<time>2025-02-27T19:14:54Z</time>
			</trkpt>
						<trkpt lat="48.63667" lon="1.97612">
			<ele>135</ele>			<time>2025-02-27T19:14:54Z</time>
			</trkpt>
						<trkpt lat="48.63644" lon="1.97653">
			<ele>133</ele>			<time>2025-02-27T19:14:54Z</time>
			</trkpt>
						<trkpt lat="48.63615" lon="1.97687">
			<ele>131</ele>			<time>2025-02-27T19:14:54Z</time>
			</trkpt>
						<trkpt lat="48.63595" lon="1.97716">
			<ele>129</ele>			<time>2025-02-27T19:14:54Z</time>
			</trkpt>
						<trkpt lat="48.63568" lon="1.97789">
			<ele>126</ele>			<time>2025-02-27T19:14:54Z</time>
			</trkpt>
						<trkpt lat="48.63557" lon="1.97811">
			<ele>125</ele>			<time>2025-02-27T19:14:54Z</time>
			</trkpt>
						<trkpt lat="48.63535" lon="1.97846">
			<ele>124</ele>			<time>2025-02-27T19:14:54Z</time>
			</trkpt>
						<trkpt lat="48.63436" lon="1.97963">
			<ele>119</ele>			<time>2025-02-27T19:14:54Z</time>
			</trkpt>
						<trkpt lat="48.63426" lon="1.97978">
			<ele>119</ele>			<time>2025-02-27T19:14:54Z</time>
			</trkpt>
						<trkpt lat="48.6342" lon="1.97995">
			<ele>119</ele>			<time>2025-02-27T19:14:54Z</time>
			</trkpt>
						<trkpt lat="48.63402" lon="1.98076">
			<ele>118</ele>			<time>2025-02-27T19:14:54Z</time>
			</trkpt>
						<trkpt lat="48.63378" lon="1.98142">
			<ele>125</ele>			<time>2025-02-27T19:14:54Z</time>
			</trkpt>
						<trkpt lat="48.6337" lon="1.98156">
			<ele>127</ele>			<time>2025-02-27T19:14:54Z</time>
			</trkpt>
						<trkpt lat="48.63345" lon="1.9819">
			<ele>130</ele>			<time>2025-02-27T19:14:54Z</time>
			</trkpt>
						<trkpt lat="48.63326" lon="1.98223">
			<ele>131</ele>			<time>2025-02-27T19:14:54Z</time>
			</trkpt>
						<trkpt lat="48.63312" lon="1.98266">
			<ele>131</ele>			<time>2025-02-27T19:14:54Z</time>
			</trkpt>
						<trkpt lat="48.63302" lon="1.98339">
			<ele>131</ele>			<time>2025-02-27T19:14:54Z</time>
			</trkpt>
						<trkpt lat="48.63296" lon="1.98508">
			<ele>127</ele>			<time>2025-02-27T19:14:54Z</time>
			</trkpt>
						<trkpt lat="48.63298" lon="1.98629">
			<ele>125</ele>			<time>2025-02-27T19:14:54Z</time>
			</trkpt>
						<trkpt lat="48.63296" lon="1.9875">
			<ele>125</ele>			<time>2025-02-27T19:14:54Z</time>
			</trkpt>
						<trkpt lat="48.63291" lon="1.98785">
			<ele>126</ele>			<time>2025-02-27T19:14:54Z</time>
			</trkpt>
						<trkpt lat="48.63261" lon="1.98926">
			<ele>125</ele>			<time>2025-02-27T19:14:54Z</time>
			</trkpt>
						<trkpt lat="48.63251" lon="1.98966">
			<ele>124</ele>			<time>2025-02-27T19:14:54Z</time>
			</trkpt>
						<trkpt lat="48.63243" lon="1.98992">
			<ele>123</ele>			<time>2025-02-27T19:14:54Z</time>
			</trkpt>
						<trkpt lat="48.63232" lon="1.99015">
			<ele>123</ele>			<time>2025-02-27T19:14:54Z</time>
			</trkpt>
						<trkpt lat="48.63217" lon="1.9903">
			<ele>122</ele>			<time>2025-02-27T19:14:54Z</time>
			</trkpt>
						<trkpt lat="48.63201" lon="1.99039">
			<ele>121</ele>			<time>2025-02-27T19:14:54Z</time>
			</trkpt>
						<trkpt lat="48.63186" lon="1.99041">
			<ele>120</ele>			<time>2025-02-27T19:14:54Z</time>
			</trkpt>
						<trkpt lat="48.63135" lon="1.99026">
			<ele>117</ele>			<time>2025-02-27T19:14:54Z</time>
			</trkpt>
						<trkpt lat="48.63054" lon="1.98988">
			<ele>114</ele>			<time>2025-02-27T19:14:54Z</time>
			</trkpt>
						<trkpt lat="48.63027" lon="1.98975">
			<ele>112</ele>			<time>2025-02-27T19:14:54Z</time>
			</trkpt>
						<trkpt lat="48.62989" lon="1.9895">
			<ele>110</ele>			<time>2025-02-27T19:14:54Z</time>
			</trkpt>
						<trkpt lat="48.62948" lon="1.98909">
			<ele>110</ele>			<time>2025-02-27T19:14:54Z</time>
			</trkpt>
						<trkpt lat="48.62912" lon="1.9887">
			<ele>110</ele>			<time>2025-02-27T19:14:54Z</time>
			</trkpt>
						<trkpt lat="48.62886" lon="1.98851">
			<ele>109</ele>			<time>2025-02-27T19:14:54Z</time>
			</trkpt>
						<trkpt lat="48.62799" lon="1.9878">
			<ele>110</ele>			<time>2025-02-27T19:14:54Z</time>
			</trkpt>
						<trkpt lat="48.62768" lon="1.98756">
			<ele>110</ele>			<time>2025-02-27T19:14:54Z</time>
			</trkpt>
						<trkpt lat="48.62751" lon="1.98755">
			<ele>111</ele>			<time>2025-02-27T19:14:54Z</time>
			</trkpt>
						<trkpt lat="48.62652" lon="1.98799">
			<ele>109</ele>			<time>2025-02-27T19:14:54Z</time>
			</trkpt>
						<trkpt lat="48.62611" lon="1.98821">
			<ele>109</ele>			<time>2025-02-27T19:14:54Z</time>
			</trkpt>
						<trkpt lat="48.62537" lon="1.98865">
			<ele>108</ele>			<time>2025-02-27T19:14:54Z</time>
			</trkpt>
						<trkpt lat="48.62503" lon="1.9889">
			<ele>108</ele>			<time>2025-02-27T19:14:54Z</time>
			</trkpt>
						<trkpt lat="48.6239" lon="1.9898">
			<ele>107</ele>			<time>2025-02-27T19:14:54Z</time>
			</trkpt>
						<trkpt lat="48.62375" lon="1.98994">
			<ele>107</ele>			<time>2025-02-27T19:14:54Z</time>
			</trkpt>
						<trkpt lat="48.62354" lon="1.99009">
			<ele>106</ele>			<time>2025-02-27T19:14:54Z</time>
			</trkpt>
						<trkpt lat="48.62343" lon="1.99012">
			<ele>106</ele>			<time>2025-02-27T19:14:54Z</time>
			</trkpt>
						<trkpt lat="48.62338" lon="1.99026">
			<ele>105</ele>			<time>2025-02-27T19:14:54Z</time>
			</trkpt>
						<trkpt lat="48.62322" lon="1.99052">
			<ele>105</ele>			<time>2025-02-27T19:14:54Z</time>
			</trkpt>
						<trkpt lat="48.62303" lon="1.99081">
			<ele>104</ele>			<time>2025-02-27T19:14:54Z</time>
			</trkpt>
						<trkpt lat="48.62221" lon="1.99172">
			<ele>103</ele>			<time>2025-02-27T19:14:54Z</time>
			</trkpt>
						<trkpt lat="48.62182" lon="1.99219">
			<ele>103</ele>			<time>2025-02-27T19:14:54Z</time>
			</trkpt>
						<trkpt lat="48.62195" lon="1.9927">
			<ele>103</ele>			<time>2025-02-27T19:14:54Z</time>
			</trkpt>
						<trkpt lat="48.6221" lon="1.99335">
			<ele>104</ele>			<time>2025-02-27T19:14:54Z</time>
			</trkpt>
						<trkpt lat="48.62168" lon="1.99341">
			<ele>103</ele>			<time>2025-02-27T19:14:54Z</time>
			</trkpt>
						<trkpt lat="48.62096" lon="1.99365">
			<ele>105</ele>			<time>2025-02-27T19:14:54Z</time>
			</trkpt>
						<trkpt lat="48.62078" lon="1.99373">
			<ele>105</ele>			<time>2025-02-27T19:14:54Z</time>
			</trkpt>
						<trkpt lat="48.62066" lon="1.99424">
			<ele>105</ele>			<time>2025-02-27T19:14:54Z</time>
			</trkpt>
						<trkpt lat="48.6205" lon="1.99518">
			<ele>106</ele>			<time>2025-02-27T19:14:54Z</time>
			</trkpt>
						<trkpt lat="48.62043" lon="1.99647">
			<ele>108</ele>			<time>2025-02-27T19:14:54Z</time>
			</trkpt>
						<trkpt lat="48.62049" lon="1.99677">
			<ele>109</ele>			<time>2025-02-27T19:14:54Z</time>
			</trkpt>
						<trkpt lat="48.62086" lon="1.99809">
			<ele>112</ele>			<time>2025-02-27T19:14:54Z</time>
			</trkpt>
						<trkpt lat="48.62102" lon="1.99857">
			<ele>113</ele>			<time>2025-02-27T19:14:54Z</time>
			</trkpt>
						<trkpt lat="48.62026" lon="1.99912">
			<ele>112</ele>			<time>2025-02-27T19:14:54Z</time>
			</trkpt>
						<trkpt lat="48.62007" lon="1.99923">
			<ele>111</ele>			<time>2025-02-27T19:14:54Z</time>
			</trkpt>
						<trkpt lat="48.61984" lon="1.99927">
			<ele>111</ele>			<time>2025-02-27T19:14:54Z</time>
			</trkpt>
						<trkpt lat="48.61926" lon="1.99925">
			<ele>112</ele>			<time>2025-02-27T19:14:54Z</time>
			</trkpt>
						<trkpt lat="48.61851" lon="1.99927">
			<ele>114</ele>			<time>2025-02-27T19:14:54Z</time>
			</trkpt>
						<trkpt lat="48.61818" lon="1.99931">
			<ele>114</ele>			<time>2025-02-27T19:14:54Z</time>
			</trkpt>
						<trkpt lat="48.6168" lon="1.9992">
			<ele>114</ele>			<time>2025-02-27T19:14:54Z</time>
			</trkpt>
						<trkpt lat="48.61559" lon="1.99915">
			<ele>118</ele>			<time>2025-02-27T19:14:54Z</time>
			</trkpt>
						<trkpt lat="48.61499" lon="1.9991">
			<ele>121</ele>			<time>2025-02-27T19:14:54Z</time>
			</trkpt>
						<trkpt lat="48.61438" lon="1.99903">
			<ele>126</ele>			<time>2025-02-27T19:14:54Z</time>
			</trkpt>
						<trkpt lat="48.61395" lon="1.9989">
			<ele>129</ele>			<time>2025-02-27T19:14:54Z</time>
			</trkpt>
						<trkpt lat="48.61278" lon="1.9985">
			<ele>128</ele>			<time>2025-02-27T19:14:54Z</time>
			</trkpt>
						<trkpt lat="48.61256" lon="1.99836">
			<ele>126</ele>			<time>2025-02-27T19:14:54Z</time>
			</trkpt>
						<trkpt lat="48.61192" lon="1.99788">
			<ele>125</ele>			<time>2025-02-27T19:14:54Z</time>
			</trkpt>
						<trkpt lat="48.61141" lon="1.99759">
			<ele>124</ele>			<time>2025-02-27T19:14:54Z</time>
			</trkpt>
						<trkpt lat="48.6111" lon="1.99748">
			<ele>124</ele>			<time>2025-02-27T19:14:54Z</time>
			</trkpt>
						<trkpt lat="48.61051" lon="1.99738">
			<ele>123</ele>			<time>2025-02-27T19:14:54Z</time>
			</trkpt>
						<trkpt lat="48.60959" lon="1.99731">
			<ele>120</ele>			<time>2025-02-27T19:14:54Z</time>
			</trkpt>
						<trkpt lat="48.60899" lon="1.99727">
			<ele>119</ele>			<time>2025-02-27T19:14:54Z</time>
			</trkpt>
						<trkpt lat="48.60866" lon="1.99719">
			<ele>118</ele>			<time>2025-02-27T19:14:54Z</time>
			</trkpt>
						<trkpt lat="48.60771" lon="1.99692">
			<ele>117</ele>			<time>2025-02-27T19:14:54Z</time>
			</trkpt>
						<trkpt lat="48.60652" lon="1.99642">
			<ele>114</ele>			<time>2025-02-27T19:14:54Z</time>
			</trkpt>
						<trkpt lat="48.60628" lon="1.99633">
			<ele>114</ele>			<time>2025-02-27T19:14:54Z</time>
			</trkpt>
						<trkpt lat="48.60611" lon="1.9963">
			<ele>114</ele>			<time>2025-02-27T19:14:54Z</time>
			</trkpt>
						<trkpt lat="48.60587" lon="1.99629">
			<ele>114</ele>			<time>2025-02-27T19:14:54Z</time>
			</trkpt>
						<trkpt lat="48.60547" lon="1.9963">
			<ele>112</ele>			<time>2025-02-27T19:14:54Z</time>
			</trkpt>
						<trkpt lat="48.60486" lon="1.99637">
			<ele>110</ele>			<time>2025-02-27T19:14:54Z</time>
			</trkpt>
						<trkpt lat="48.60464" lon="1.99639">
			<ele>109</ele>			<time>2025-02-27T19:14:54Z</time>
			</trkpt>
						<trkpt lat="48.60428" lon="1.99634">
			<ele>107</ele>			<time>2025-02-27T19:14:54Z</time>
			</trkpt>
						<trkpt lat="48.60397" lon="1.9962">
			<ele>104</ele>			<time>2025-02-27T19:14:54Z</time>
			</trkpt>
						<trkpt lat="48.60369" lon="1.996">
			<ele>102</ele>			<time>2025-02-27T19:14:54Z</time>
			</trkpt>
						<trkpt lat="48.60328" lon="1.99556">
			<ele>99</ele>			<time>2025-02-27T19:14:54Z</time>
			</trkpt>
						<trkpt lat="48.60294" lon="1.99515">
			<ele>97</ele>			<time>2025-02-27T19:14:54Z</time>
			</trkpt>
						<trkpt lat="48.6023" lon="1.9944">
			<ele>97</ele>			<time>2025-02-27T19:14:54Z</time>
			</trkpt>
						<trkpt lat="48.60207" lon="1.99418">
			<ele>96</ele>			<time>2025-02-27T19:14:54Z</time>
			</trkpt>
						<trkpt lat="48.60179" lon="1.99398">
			<ele>96</ele>			<time>2025-02-27T19:14:54Z</time>
			</trkpt>
						<trkpt lat="48.60182" lon="1.99373">
			<ele>97</ele>			<time>2025-02-27T19:14:54Z</time>
			</trkpt>
						<trkpt lat="48.60256" lon="1.99245">
			<ele>99</ele>			<time>2025-02-27T19:14:54Z</time>
			</trkpt>
						<trkpt lat="48.60396" lon="1.99001">
			<ele>100</ele>			<time>2025-02-27T19:14:54Z</time>
			</trkpt>
						<trkpt lat="48.60592" lon="1.98662">
			<ele>98</ele>			<time>2025-02-27T19:14:54Z</time>
			</trkpt>
						<trkpt lat="48.60633" lon="1.98587">
			<ele>102</ele>			<time>2025-02-27T19:14:54Z</time>
			</trkpt>
						<trkpt lat="48.60649" lon="1.9855">
			<ele>104</ele>			<time>2025-02-27T19:14:54Z</time>
			</trkpt>
						<trkpt lat="48.6066" lon="1.98514">
			<ele>105</ele>			<time>2025-02-27T19:14:54Z</time>
			</trkpt>
						<trkpt lat="48.60694" lon="1.98382">
			<ele>107</ele>			<time>2025-02-27T19:14:54Z</time>
			</trkpt>
						<trkpt lat="48.6071" lon="1.98326">
			<ele>107</ele>			<time>2025-02-27T19:14:54Z</time>
			</trkpt>
						<trkpt lat="48.60722" lon="1.98292">
			<ele>107</ele>			<time>2025-02-27T19:14:54Z</time>
			</trkpt>
						<trkpt lat="48.60736" lon="1.9827">
			<ele>107</ele>			<time>2025-02-27T19:14:54Z</time>
			</trkpt>
						<trkpt lat="48.60759" lon="1.98243">
			<ele>107</ele>			<time>2025-02-27T19:14:54Z</time>
			</trkpt>
						<trkpt lat="48.60782" lon="1.98208">
			<ele>107</ele>			<time>2025-02-27T19:14:54Z</time>
			</trkpt>
						<trkpt lat="48.60816" lon="1.98148">
			<ele>106</ele>			<time>2025-02-27T19:14:54Z</time>
			</trkpt>
						<trkpt lat="48.60858" lon="1.98081">
			<ele>104</ele>			<time>2025-02-27T19:14:54Z</time>
			</trkpt>
						<trkpt lat="48.60914" lon="1.98004">
			<ele>105</ele>			<time>2025-02-27T19:14:54Z</time>
			</trkpt>
						<trkpt lat="48.60974" lon="1.97929">
			<ele>106</ele>			<time>2025-02-27T19:14:54Z</time>
			</trkpt>
						<trkpt lat="48.61017" lon="1.9788">
			<ele>106</ele>			<time>2025-02-27T19:14:54Z</time>
			</trkpt>
						<trkpt lat="48.6103" lon="1.9787">
			<ele>106</ele>			<time>2025-02-27T19:14:54Z</time>
			</trkpt>
						<trkpt lat="48.61082" lon="1.97845">
			<ele>107</ele>			<time>2025-02-27T19:14:54Z</time>
			</trkpt>
						<trkpt lat="48.61165" lon="1.97812">
			<ele>101</ele>			<time>2025-02-27T19:14:54Z</time>
			</trkpt>
						<trkpt lat="48.61199" lon="1.978">
			<ele>101</ele>			<time>2025-02-27T19:14:54Z</time>
			</trkpt>
						<trkpt lat="48.61231" lon="1.97881">
			<ele>100</ele>			<time>2025-02-27T19:14:54Z</time>
			</trkpt>
						<trkpt lat="48.61259" lon="1.97958">
			<ele>99</ele>			<time>2025-02-27T19:14:54Z</time>
			</trkpt>
						<trkpt lat="48.61268" lon="1.97975">
			<ele>99</ele>			<time>2025-02-27T19:14:54Z</time>
			</trkpt>
						<trkpt lat="48.61282" lon="1.97991">
			<ele>99</ele>			<time>2025-02-27T19:14:54Z</time>
			</trkpt>
						<trkpt lat="48.61297" lon="1.98001">
			<ele>100</ele>			<time>2025-02-27T19:14:54Z</time>
			</trkpt>
						<trkpt lat="48.61324" lon="1.98011">
			<ele>101</ele>			<time>2025-02-27T19:14:54Z</time>
			</trkpt>
						<trkpt lat="48.6135" lon="1.98022">
			<ele>101</ele>			<time>2025-02-27T19:14:54Z</time>
			</trkpt>
						<trkpt lat="48.61372" lon="1.98037">
			<ele>102</ele>			<time>2025-02-27T19:14:54Z</time>
			</trkpt>
						<trkpt lat="48.61389" lon="1.98053">
			<ele>103</ele>			<time>2025-02-27T19:14:54Z</time>
			</trkpt>
						<trkpt lat="48.61426" lon="1.98096">
			<ele>106</ele>			<time>2025-02-27T19:14:54Z</time>
			</trkpt>
						<trkpt lat="48.61451" lon="1.98132">
			<ele>108</ele>			<time>2025-02-27T19:14:54Z</time>
			</trkpt>
						<trkpt lat="48.61469" lon="1.98165">
			<ele>109</ele>			<time>2025-02-27T19:14:54Z</time>
			</trkpt>
						<trkpt lat="48.61487" lon="1.982">
			<ele>109</ele>			<time>2025-02-27T19:14:54Z</time>
			</trkpt>
						<trkpt lat="48.61559" lon="1.98309">
			<ele>109</ele>			<time>2025-02-27T19:14:54Z</time>
			</trkpt>
						<trkpt lat="48.61587" lon="1.98348">
			<ele>110</ele>			<time>2025-02-27T19:14:54Z</time>
			</trkpt>
						<trkpt lat="48.61617" lon="1.98388">
			<ele>106</ele>			<time>2025-02-27T19:14:54Z</time>
			</trkpt>
						<trkpt lat="48.61646" lon="1.98423">
			<ele>104</ele>			<time>2025-02-27T19:14:54Z</time>
			</trkpt>
						<trkpt lat="48.61739" lon="1.98523">
			<ele>102</ele>			<time>2025-02-27T19:14:54Z</time>
			</trkpt>
						<trkpt lat="48.61758" lon="1.98554">
			<ele>102</ele>			<time>2025-02-27T19:14:54Z</time>
			</trkpt>
						<trkpt lat="48.61772" lon="1.98583">
			<ele>102</ele>			<time>2025-02-27T19:14:54Z</time>
			</trkpt>
						<trkpt lat="48.6179" lon="1.98635">
			<ele>102</ele>			<time>2025-02-27T19:14:54Z</time>
			</trkpt>
						<trkpt lat="48.61804" lon="1.98671">
			<ele>102</ele>			<time>2025-02-27T19:14:54Z</time>
			</trkpt>
						<trkpt lat="48.61821" lon="1.98697">
			<ele>101</ele>			<time>2025-02-27T19:14:54Z</time>
			</trkpt>
						<trkpt lat="48.61854" lon="1.98734">
			<ele>101</ele>			<time>2025-02-27T19:14:54Z</time>
			</trkpt>
						<trkpt lat="48.61895" lon="1.98771">
			<ele>101</ele>			<time>2025-02-27T19:14:54Z</time>
			</trkpt>
						<trkpt lat="48.62001" lon="1.98859">
			<ele>103</ele>			<time>2025-02-27T19:14:54Z</time>
			</trkpt>
						<trkpt lat="48.62011" lon="1.98873">
			<ele>103</ele>			<time>2025-02-27T19:14:54Z</time>
			</trkpt>
						<trkpt lat="48.62021" lon="1.9889">
			<ele>103</ele>			<time>2025-02-27T19:14:54Z</time>
			</trkpt>
						<trkpt lat="48.6204" lon="1.98933">
			<ele>103</ele>			<time>2025-02-27T19:14:54Z</time>
			</trkpt>
						<trkpt lat="48.62059" lon="1.98988">
			<ele>103</ele>			<time>2025-02-27T19:14:54Z</time>
			</trkpt>
						<trkpt lat="48.62077" lon="1.99037">
			<ele>102</ele>			<time>2025-02-27T19:14:54Z</time>
			</trkpt>
						<trkpt lat="48.62096" lon="1.99079">
			<ele>101</ele>			<time>2025-02-27T19:14:54Z</time>
			</trkpt>
						<trkpt lat="48.62142" lon="1.99165">
			<ele>103</ele>			<time>2025-02-27T19:14:54Z</time>
			</trkpt>
						<trkpt lat="48.62154" lon="1.99184">
			<ele>103</ele>			<time>2025-02-27T19:14:54Z</time>
			</trkpt>
						<trkpt lat="48.62163" lon="1.99191">
			<ele>104</ele>			<time>2025-02-27T19:14:54Z</time>
			</trkpt>
						<trkpt lat="48.62182" lon="1.99219">
			<ele>103</ele>			<time>2025-02-27T19:14:54Z</time>
			</trkpt>
						<trkpt lat="48.6223" lon="1.99161">
			<ele>103</ele>			<time>2025-02-27T19:14:54Z</time>
			</trkpt>
						<trkpt lat="48.62303" lon="1.99081">
			<ele>104</ele>			<time>2025-02-27T19:14:54Z</time>
			</trkpt>
						<trkpt lat="48.62322" lon="1.99052">
			<ele>105</ele>			<time>2025-02-27T19:14:54Z</time>
			</trkpt>
						<trkpt lat="48.62338" lon="1.99026">
			<ele>105</ele>			<time>2025-02-27T19:14:54Z</time>
			</trkpt>
						<trkpt lat="48.62344" lon="1.99004">
			<ele>106</ele>			<time>2025-02-27T19:14:54Z</time>
			</trkpt>
						<trkpt lat="48.62339" lon="1.98969">
			<ele>106</ele>			<time>2025-02-27T19:14:54Z</time>
			</trkpt>
						<trkpt lat="48.62332" lon="1.98929">
			<ele>107</ele>			<time>2025-02-27T19:14:54Z</time>
			</trkpt>
						<trkpt lat="48.62333" lon="1.98901">
			<ele>107</ele>			<time>2025-02-27T19:14:54Z</time>
			</trkpt>
						<trkpt lat="48.62342" lon="1.98865">
			<ele>108</ele>			<time>2025-02-27T19:14:54Z</time>
			</trkpt>
						<trkpt lat="48.62361" lon="1.98817">
			<ele>108</ele>			<time>2025-02-27T19:14:54Z</time>
			</trkpt>
						<trkpt lat="48.62404" lon="1.98728">
			<ele>110</ele>			<time>2025-02-27T19:14:54Z</time>
			</trkpt>
						<trkpt lat="48.62513" lon="1.98357">
			<ele>114</ele>			<time>2025-02-27T19:14:54Z</time>
			</trkpt>
						<trkpt lat="48.62601" lon="1.98047">
			<ele>121</ele>			<time>2025-02-27T19:14:54Z</time>
			</trkpt>
						<trkpt lat="48.62609" lon="1.9802">
			<ele>122</ele>			<time>2025-02-27T19:14:54Z</time>
			</trkpt>
						<trkpt lat="48.6262" lon="1.97985">
			<ele>123</ele>			<time>2025-02-27T19:14:54Z</time>
			</trkpt>
						<trkpt lat="48.62627" lon="1.97948">
			<ele>123</ele>			<time>2025-02-27T19:14:54Z</time>
			</trkpt>
						<trkpt lat="48.6263" lon="1.97923">
			<ele>124</ele>			<time>2025-02-27T19:14:54Z</time>
			</trkpt>
						<trkpt lat="48.62642" lon="1.97688">
			<ele>128</ele>			<time>2025-02-27T19:14:54Z</time>
			</trkpt>
						<trkpt lat="48.62656" lon="1.97397">
			<ele>137</ele>			<time>2025-02-27T19:14:54Z</time>
			</trkpt>
						<trkpt lat="48.62667" lon="1.9723">
			<ele>147</ele>			<time>2025-02-27T19:14:54Z</time>
			</trkpt>
						<trkpt lat="48.62678" lon="1.97107">
			<ele>149</ele>			<time>2025-02-27T19:14:54Z</time>
			</trkpt>
						<trkpt lat="48.62687" lon="1.9701">
			<ele>146</ele>			<time>2025-02-27T19:14:54Z</time>
			</trkpt>
						<trkpt lat="48.62697" lon="1.96973">
			<ele>144</ele>			<time>2025-02-27T19:14:54Z</time>
			</trkpt>
						<trkpt lat="48.62716" lon="1.96934">
			<ele>141</ele>			<time>2025-02-27T19:14:54Z</time>
			</trkpt>
						<trkpt lat="48.6281" lon="1.96777">
			<ele>138</ele>			<time>2025-02-27T19:14:54Z</time>
			</trkpt>
						<trkpt lat="48.62893" lon="1.96618">
			<ele>142</ele>			<time>2025-02-27T19:14:54Z</time>
			</trkpt>
						<trkpt lat="48.6295" lon="1.96532">
			<ele>141</ele>			<time>2025-02-27T19:14:54Z</time>
			</trkpt>
						<trkpt lat="48.62994" lon="1.96461">
			<ele>137</ele>			<time>2025-02-27T19:14:54Z</time>
			</trkpt>
						<trkpt lat="48.63031" lon="1.96393">
			<ele>137</ele>			<time>2025-02-27T19:14:54Z</time>
			</trkpt>
						<trkpt lat="48.63038" lon="1.96378">
			<ele>138</ele>			<time>2025-02-27T19:14:54Z</time>
			</trkpt>
						<trkpt lat="48.63097" lon="1.96246">
			<ele>140</ele>			<time>2025-02-27T19:14:54Z</time>
			</trkpt>
						<trkpt lat="48.63109" lon="1.96214">
			<ele>140</ele>			<time>2025-02-27T19:14:54Z</time>
			</trkpt>
						<trkpt lat="48.63122" lon="1.96168">
			<ele>139</ele>			<time>2025-02-27T19:14:54Z</time>
			</trkpt>
						<trkpt lat="48.63176" lon="1.95905">
			<ele>132</ele>			<time>2025-02-27T19:14:54Z</time>
			</trkpt>
						<trkpt lat="48.63183" lon="1.95879">
			<ele>130</ele>			<time>2025-02-27T19:14:54Z</time>
			</trkpt>
						<trkpt lat="48.63191" lon="1.9586">
			<ele>129</ele>			<time>2025-02-27T19:14:54Z</time>
			</trkpt>
						<trkpt lat="48.6321" lon="1.95824">
			<ele>127</ele>			<time>2025-02-27T19:14:54Z</time>
			</trkpt>
						<trkpt lat="48.63315" lon="1.95664">
			<ele>124</ele>			<time>2025-02-27T19:14:54Z</time>
			</trkpt>
						<trkpt lat="48.63355" lon="1.95604">
			<ele>124</ele>			<time>2025-02-27T19:14:54Z</time>
			</trkpt>
						<trkpt lat="48.63439" lon="1.95471">
			<ele>123</ele>			<time>2025-02-27T19:14:54Z</time>
			</trkpt>
						<trkpt lat="48.63453" lon="1.9545">
			<ele>123</ele>			<time>2025-02-27T19:14:54Z</time>
			</trkpt>
						<trkpt lat="48.63465" lon="1.95437">
			<ele>123</ele>			<time>2025-02-27T19:14:54Z</time>
			</trkpt>
						<trkpt lat="48.63475" lon="1.95429">
			<ele>123</ele>			<time>2025-02-27T19:14:54Z</time>
			</trkpt>
						<trkpt lat="48.63503" lon="1.95409">
			<ele>122</ele>			<time>2025-02-27T19:14:54Z</time>
			</trkpt>
						<trkpt lat="48.63541" lon="1.95389">
			<ele>122</ele>			<time>2025-02-27T19:14:54Z</time>
			</trkpt>
						<trkpt lat="48.63558" lon="1.95382">
			<ele>122</ele>			<time>2025-02-27T19:14:54Z</time>
			</trkpt>
						<trkpt lat="48.63628" lon="1.95405">
			<ele>123</ele>			<time>2025-02-27T19:14:54Z</time>
			</trkpt>
						<trkpt lat="48.63644" lon="1.9541">
			<ele>123</ele>			<time>2025-02-27T19:14:54Z</time>
			</trkpt>
						<trkpt lat="48.6368" lon="1.95423">
			<ele>124</ele>			<time>2025-02-27T19:14:54Z</time>
			</trkpt>
						<trkpt lat="48.63715" lon="1.95431">
			<ele>126</ele>			<time>2025-02-27T19:14:54Z</time>
			</trkpt>
						<trkpt lat="48.63728" lon="1.95424">
			<ele>127</ele>			<time>2025-02-27T19:14:54Z</time>
			</trkpt>
						<trkpt lat="48.63739" lon="1.9541">
			<ele>127</ele>			<time>2025-02-27T19:14:54Z</time>
			</trkpt>
						<trkpt lat="48.63771" lon="1.95313">
			<ele>130</ele>			<time>2025-02-27T19:14:54Z</time>
			</trkpt>
						<trkpt lat="48.63791" lon="1.95255">
			<ele>131</ele>			<time>2025-02-27T19:14:54Z</time>
			</trkpt>
						<trkpt lat="48.63809" lon="1.95186">
			<ele>128</ele>			<time>2025-02-27T19:14:54Z</time>
			</trkpt>
						<trkpt lat="48.63816" lon="1.95153">
			<ele>127</ele>			<time>2025-02-27T19:14:54Z</time>
			</trkpt>
						<trkpt lat="48.6384" lon="1.95117">
			<ele>126</ele>			<time>2025-02-27T19:14:54Z</time>
			</trkpt>
						<trkpt lat="48.63858" lon="1.95095">
			<ele>126</ele>			<time>2025-02-27T19:14:54Z</time>
			</trkpt>
						<trkpt lat="48.63881" lon="1.95078">
			<ele>126</ele>			<time>2025-02-27T19:14:54Z</time>
			</trkpt>
						<trkpt lat="48.63964" lon="1.95029">
			<ele>127</ele>			<time>2025-02-27T19:14:54Z</time>
			</trkpt>
						<trkpt lat="48.63989" lon="1.95016">
			<ele>126</ele>			<time>2025-02-27T19:14:54Z</time>
			</trkpt>
						<trkpt lat="48.64014" lon="1.9501">
			<ele>126</ele>			<time>2025-02-27T19:14:54Z</time>
			</trkpt>
						<trkpt lat="48.64032" lon="1.95009">
			<ele>126</ele>			<time>2025-02-27T19:14:54Z</time>
			</trkpt>
						<trkpt lat="48.64049" lon="1.95013">
			<ele>126</ele>			<time>2025-02-27T19:14:54Z</time>
			</trkpt>
						<trkpt lat="48.64071" lon="1.95023">
			<ele>126</ele>			<time>2025-02-27T19:14:54Z</time>
			</trkpt>
						<trkpt lat="48.64125" lon="1.95057">
			<ele>126</ele>			<time>2025-02-27T19:14:54Z</time>
			</trkpt>
						<trkpt lat="48.64143" lon="1.95066">
			<ele>126</ele>			<time>2025-02-27T19:14:54Z</time>
			</trkpt>
						<trkpt lat="48.64276" lon="1.95115">
			<ele>129</ele>			<time>2025-02-27T19:14:54Z</time>
			</trkpt>
						<trkpt lat="48.64295" lon="1.95119">
			<ele>129</ele>			<time>2025-02-27T19:14:54Z</time>
			</trkpt>
						<trkpt lat="48.64313" lon="1.9512">
			<ele>128</ele>			<time>2025-02-27T19:14:54Z</time>
			</trkpt>
						<trkpt lat="48.64324" lon="1.95119">
			<ele>128</ele>			<time>2025-02-27T19:14:54Z</time>
			</trkpt>
						<trkpt lat="48.64338" lon="1.95114">
			<ele>128</ele>			<time>2025-02-27T19:14:54Z</time>
			</trkpt>
						<trkpt lat="48.64367" lon="1.95096">
			<ele>128</ele>			<time>2025-02-27T19:14:54Z</time>
			</trkpt>
						<trkpt lat="48.64414" lon="1.95074">
			<ele>130</ele>			<time>2025-02-27T19:14:54Z</time>
			</trkpt>
						<trkpt lat="48.6444" lon="1.95065">
			<ele>131</ele>			<time>2025-02-27T19:14:54Z</time>
			</trkpt>
						<trkpt lat="48.64471" lon="1.95061">
			<ele>133</ele>			<time>2025-02-27T19:14:54Z</time>
			</trkpt>
						<trkpt lat="48.64506" lon="1.9507">
			<ele>133</ele>			<time>2025-02-27T19:14:54Z</time>
			</trkpt>
						<trkpt lat="48.64564" lon="1.95086">
			<ele>137</ele>			<time>2025-02-27T19:14:54Z</time>
			</trkpt>
						<trkpt lat="48.64598" lon="1.95084">
			<ele>139</ele>			<time>2025-02-27T19:14:54Z</time>
			</trkpt>
						<trkpt lat="48.64615" lon="1.95078">
			<ele>140</ele>			<time>2025-02-27T19:14:54Z</time>
			</trkpt>
						<trkpt lat="48.64629" lon="1.95071">
			<ele>141</ele>			<time>2025-02-27T19:14:54Z</time>
			</trkpt>
						<trkpt lat="48.6471" lon="1.95003">
			<ele>144</ele>			<time>2025-02-27T19:14:54Z</time>
			</trkpt>
						<trkpt lat="48.64782" lon="1.94953">
			<ele>145</ele>			<time>2025-02-27T19:14:54Z</time>
			</trkpt>
						<trkpt lat="48.64831" lon="1.94922">
			<ele>146</ele>			<time>2025-02-27T19:14:54Z</time>
			</trkpt>
						<trkpt lat="48.64932" lon="1.94871">
			<ele>149</ele>			<time>2025-02-27T19:14:54Z</time>
			</trkpt>
						<trkpt lat="48.64945" lon="1.94861">
			<ele>149</ele>			<time>2025-02-27T19:14:54Z</time>
			</trkpt>
						<trkpt lat="48.65054" lon="1.9475">
			<ele>146</ele>			<time>2025-02-27T19:14:54Z</time>
			</trkpt>
						<trkpt lat="48.65072" lon="1.9473">
			<ele>146</ele>			<time>2025-02-27T19:14:54Z</time>
			</trkpt>
						<trkpt lat="48.65133" lon="1.94659">
			<ele>146</ele>			<time>2025-02-27T19:14:54Z</time>
			</trkpt>
						<trkpt lat="48.65162" lon="1.94622">
			<ele>144</ele>			<time>2025-02-27T19:14:54Z</time>
			</trkpt>
						<trkpt lat="48.65184" lon="1.94591">
			<ele>144</ele>			<time>2025-02-27T19:14:54Z</time>
			</trkpt>
						<trkpt lat="48.652" lon="1.94559">
			<ele>144</ele>			<time>2025-02-27T19:14:54Z</time>
			</trkpt>
						<trkpt lat="48.65271" lon="1.94392">
			<ele>144</ele>			<time>2025-02-27T19:14:54Z</time>
			</trkpt>
						<trkpt lat="48.65373" lon="1.94144">
			<ele>144</ele>			<time>2025-02-27T19:14:54Z</time>
			</trkpt>
						<trkpt lat="48.65386" lon="1.94113">
			<ele>145</ele>			<time>2025-02-27T19:14:54Z</time>
			</trkpt>
						<trkpt lat="48.65396" lon="1.94099">
			<ele>145</ele>			<time>2025-02-27T19:14:54Z</time>
			</trkpt>
						<trkpt lat="48.65463" lon="1.94028">
			<ele>147</ele>			<time>2025-02-27T19:14:54Z</time>
			</trkpt>
						<trkpt lat="48.65487" lon="1.94005">
			<ele>147</ele>			<time>2025-02-27T19:14:54Z</time>
			</trkpt>
						<trkpt lat="48.65507" lon="1.93989">
			<ele>148</ele>			<time>2025-02-27T19:14:54Z</time>
			</trkpt>
						<trkpt lat="48.65539" lon="1.9398">
			<ele>149</ele>			<time>2025-02-27T19:14:54Z</time>
			</trkpt>
						<trkpt lat="48.65567" lon="1.93971">
			<ele>149</ele>			<time>2025-02-27T19:14:54Z</time>
			</trkpt>
						<trkpt lat="48.65579" lon="1.93966">
			<ele>150</ele>			<time>2025-02-27T19:14:54Z</time>
			</trkpt>
						<trkpt lat="48.65598" lon="1.93948">
			<ele>151</ele>			<time>2025-02-27T19:14:54Z</time>
			</trkpt>
						<trkpt lat="48.65613" lon="1.93921">
			<ele>153</ele>			<time>2025-02-27T19:14:54Z</time>
			</trkpt>
						<trkpt lat="48.65624" lon="1.93893">
			<ele>154</ele>			<time>2025-02-27T19:14:54Z</time>
			</trkpt>
						<trkpt lat="48.65672" lon="1.93763">
			<ele>158</ele>			<time>2025-02-27T19:14:54Z</time>
			</trkpt>
						<trkpt lat="48.65727" lon="1.93636">
			<ele>161</ele>			<time>2025-02-27T19:14:54Z</time>
			</trkpt>
						<trkpt lat="48.65738" lon="1.93616">
			<ele>161</ele>			<time>2025-02-27T19:14:54Z</time>
			</trkpt>
						<trkpt lat="48.65755" lon="1.93592">
			<ele>162</ele>			<time>2025-02-27T19:14:54Z</time>
			</trkpt>
						<trkpt lat="48.65769" lon="1.93579">
			<ele>163</ele>			<time>2025-02-27T19:14:54Z</time>
			</trkpt>
						<trkpt lat="48.65796" lon="1.93561">
			<ele>165</ele>			<time>2025-02-27T19:14:54Z</time>
			</trkpt>
						<trkpt lat="48.65853" lon="1.93524">
			<ele>168</ele>			<time>2025-02-27T19:14:54Z</time>
			</trkpt>
						<trkpt lat="48.65876" lon="1.93504">
			<ele>169</ele>			<time>2025-02-27T19:14:54Z</time>
			</trkpt>
						<trkpt lat="48.659" lon="1.93477">
			<ele>170</ele>			<time>2025-02-27T19:14:54Z</time>
			</trkpt>
						<trkpt lat="48.65959" lon="1.93405">
			<ele>170</ele>			<time>2025-02-27T19:14:54Z</time>
			</trkpt>
						<trkpt lat="48.65983" lon="1.93384">
			<ele>171</ele>			<time>2025-02-27T19:14:54Z</time>
			</trkpt>
						<trkpt lat="48.65997" lon="1.93374">
			<ele>172</ele>			<time>2025-02-27T19:14:54Z</time>
			</trkpt>
						<trkpt lat="48.66014" lon="1.93363">
			<ele>172</ele>			<time>2025-02-27T19:14:54Z</time>
			</trkpt>
						<trkpt lat="48.66081" lon="1.93335">
			<ele>174</ele>			<time>2025-02-27T19:14:54Z</time>
			</trkpt>
						<trkpt lat="48.6611" lon="1.93319">
			<ele>174</ele>			<time>2025-02-27T19:14:54Z</time>
			</trkpt>
						<trkpt lat="48.66123" lon="1.93308">
			<ele>174</ele>			<time>2025-02-27T19:14:54Z</time>
			</trkpt>
						<trkpt lat="48.66142" lon="1.93285">
			<ele>174</ele>			<time>2025-02-27T19:14:54Z</time>
			</trkpt>
						<trkpt lat="48.66166" lon="1.93259">
			<ele>174</ele>			<time>2025-02-27T19:14:54Z</time>
			</trkpt>
						<trkpt lat="48.66185" lon="1.93251">
			<ele>174</ele>			<time>2025-02-27T19:14:54Z</time>
			</trkpt>
						<trkpt lat="48.66262" lon="1.93247">
			<ele>174</ele>			<time>2025-02-27T19:14:54Z</time>
			</trkpt>
						<trkpt lat="48.6628" lon="1.93242">
			<ele>174</ele>			<time>2025-02-27T19:14:54Z</time>
			</trkpt>
						<trkpt lat="48.66304" lon="1.9323">
			<ele>174</ele>			<time>2025-02-27T19:14:54Z</time>
			</trkpt>
						<trkpt lat="48.66368" lon="1.93179">
			<ele>174</ele>			<time>2025-02-27T19:14:54Z</time>
			</trkpt>
						<trkpt lat="48.66386" lon="1.93166">
			<ele>175</ele>			<time>2025-02-27T19:14:54Z</time>
			</trkpt>
						<trkpt lat="48.66388" lon="1.9319">
			<ele>175</ele>			<time>2025-02-27T19:14:54Z</time>
			</trkpt>
						<trkpt lat="48.66394" lon="1.93231">
			<ele>174</ele>			<time>2025-02-27T19:14:54Z</time>
			</trkpt>
						<trkpt lat="48.66409" lon="1.93288">
			<ele>174</ele>			<time>2025-02-27T19:14:54Z</time>
			</trkpt>
						<trkpt lat="48.66416" lon="1.93302">
			<ele>173</ele>			<time>2025-02-27T19:14:54Z</time>
			</trkpt>
						<trkpt lat="48.66435" lon="1.93359">
			<ele>174</ele>			<time>2025-02-27T19:14:54Z</time>
			</trkpt>
						<trkpt lat="48.66493" lon="1.93531">
			<ele>173</ele>			<time>2025-02-27T19:14:54Z</time>
			</trkpt>
						<trkpt lat="48.66546" lon="1.93692">
			<ele>173</ele>			<time>2025-02-27T19:14:54Z</time>
			</trkpt>
						<trkpt lat="48.66566" lon="1.93738">
			<ele>173</ele>			<time>2025-02-27T19:14:54Z</time>
			</trkpt>
						<trkpt lat="48.66588" lon="1.93777">
			<ele>173</ele>			<time>2025-02-27T19:14:54Z</time>
			</trkpt>
						<trkpt lat="48.66653" lon="1.93876">
			<ele>169</ele>			<time>2025-02-27T19:14:54Z</time>
			</trkpt>
						<trkpt lat="48.66677" lon="1.93916">
			<ele>168</ele>			<time>2025-02-27T19:14:54Z</time>
			</trkpt>
						<trkpt lat="48.66697" lon="1.93959">
			<ele>166</ele>			<time>2025-02-27T19:14:54Z</time>
			</trkpt>
						<trkpt lat="48.66713" lon="1.94005">
			<ele>165</ele>			<time>2025-02-27T19:14:54Z</time>
			</trkpt>
						<trkpt lat="48.66734" lon="1.94074">
			<ele>165</ele>			<time>2025-02-27T19:14:54Z</time>
			</trkpt>
						<trkpt lat="48.6681" lon="1.94335">
			<ele>164</ele>			<time>2025-02-27T19:14:54Z</time>
			</trkpt>
						<trkpt lat="48.66799" lon="1.94363">
			<ele>164</ele>			<time>2025-02-27T19:14:54Z</time>
			</trkpt>
						<trkpt lat="48.66792" lon="1.94371">
			<ele>163</ele>			<time>2025-02-27T19:14:54Z</time>
			</trkpt>
						<trkpt lat="48.66782" lon="1.94378">
			<ele>163</ele>			<time>2025-02-27T19:14:54Z</time>
			</trkpt>
						<trkpt lat="48.66743" lon="1.94399">
			<ele>163</ele>			<time>2025-02-27T19:14:54Z</time>
			</trkpt>
						<trkpt lat="48.66714" lon="1.94414">
			<ele>164</ele>			<time>2025-02-27T19:14:54Z</time>
			</trkpt>
						<trkpt lat="48.66695" lon="1.94428">
			<ele>165</ele>			<time>2025-02-27T19:14:54Z</time>
			</trkpt>
						<trkpt lat="48.66636" lon="1.94482">
			<ele>167</ele>			<time>2025-02-27T19:14:54Z</time>
			</trkpt>
						<trkpt lat="48.66593" lon="1.94516">
			<ele>167</ele>			<time>2025-02-27T19:14:54Z</time>
			</trkpt>
						<trkpt lat="48.66566" lon="1.94533">
			<ele>168</ele>			<time>2025-02-27T19:14:54Z</time>
			</trkpt>
						<trkpt lat="48.66519" lon="1.94548">
			<ele>169</ele>			<time>2025-02-27T19:14:54Z</time>
			</trkpt>
						<trkpt lat="48.66485" lon="1.94567">
			<ele>169</ele>			<time>2025-02-27T19:14:54Z</time>
			</trkpt>
						<trkpt lat="48.66474" lon="1.94579">
			<ele>168</ele>			<time>2025-02-27T19:14:54Z</time>
			</trkpt>
						<trkpt lat="48.66467" lon="1.94594">
			<ele>168</ele>			<time>2025-02-27T19:14:54Z</time>
			</trkpt>
						<trkpt lat="48.66441" lon="1.94677">
			<ele>168</ele>			<time>2025-02-27T19:14:54Z</time>
			</trkpt>
						<trkpt lat="48.66423" lon="1.94725">
			<ele>168</ele>			<time>2025-02-27T19:14:54Z</time>
			</trkpt>
						<trkpt lat="48.66399" lon="1.94781">
			<ele>169</ele>			<time>2025-02-27T19:14:54Z</time>
			</trkpt>
						<trkpt lat="48.66358" lon="1.94859">
			<ele>169</ele>			<time>2025-02-27T19:14:54Z</time>
			</trkpt>
						<trkpt lat="48.66308" lon="1.94943">
			<ele>170</ele>			<time>2025-02-27T19:14:54Z</time>
			</trkpt>
						<trkpt lat="48.66259" lon="1.95017">
			<ele>169</ele>			<time>2025-02-27T19:14:54Z</time>
			</trkpt>
						<trkpt lat="48.66085" lon="1.95266">
			<ele>171</ele>			<time>2025-02-27T19:14:54Z</time>
			</trkpt>
						<trkpt lat="48.66051" lon="1.95322">
			<ele>172</ele>			<time>2025-02-27T19:14:54Z</time>
			</trkpt>
						<trkpt lat="48.66035" lon="1.95355">
			<ele>172</ele>			<time>2025-02-27T19:14:54Z</time>
			</trkpt>
						<trkpt lat="48.66009" lon="1.95413">
			<ele>172</ele>			<time>2025-02-27T19:14:54Z</time>
			</trkpt>
						<trkpt lat="48.66" lon="1.9544">
			<ele>172</ele>			<time>2025-02-27T19:14:54Z</time>
			</trkpt>
						<trkpt lat="48.65986" lon="1.95501">
			<ele>171</ele>			<time>2025-02-27T19:14:54Z</time>
			</trkpt>
						<trkpt lat="48.65968" lon="1.95542">
			<ele>171</ele>			<time>2025-02-27T19:14:54Z</time>
			</trkpt>
						<trkpt lat="48.65957" lon="1.95556">
			<ele>171</ele>			<time>2025-02-27T19:14:54Z</time>
			</trkpt>
						<trkpt lat="48.65912" lon="1.95618">
			<ele>171</ele>			<time>2025-02-27T19:14:54Z</time>
			</trkpt>
						<trkpt lat="48.65829" lon="1.95769">
			<ele>171</ele>			<time>2025-02-27T19:14:54Z</time>
			</trkpt>
						<trkpt lat="48.65816" lon="1.95794">
			<ele>172</ele>			<time>2025-02-27T19:14:54Z</time>
			</trkpt>
						<trkpt lat="48.658" lon="1.95815">
			<ele>172</ele>			<time>2025-02-27T19:14:54Z</time>
			</trkpt>
						<trkpt lat="48.65785" lon="1.95828">
			<ele>172</ele>			<time>2025-02-27T19:14:54Z</time>
			</trkpt>
						<trkpt lat="48.65768" lon="1.95834">
			<ele>172</ele>			<time>2025-02-27T19:14:54Z</time>
			</trkpt>
						<trkpt lat="48.65742" lon="1.95837">
			<ele>172</ele>			<time>2025-02-27T19:14:54Z</time>
			</trkpt>
						<trkpt lat="48.65679" lon="1.95834">
			<ele>173</ele>			<time>2025-02-27T19:14:54Z</time>
			</trkpt>
						<trkpt lat="48.65616" lon="1.95836">
			<ele>175</ele>			<time>2025-02-27T19:14:54Z</time>
			</trkpt>
						<trkpt lat="48.65578" lon="1.95848">
			<ele>176</ele>			<time>2025-02-27T19:14:54Z</time>
			</trkpt>
						<trkpt lat="48.65544" lon="1.95879">
			<ele>173</ele>			<time>2025-02-27T19:14:54Z</time>
			</trkpt>
						<trkpt lat="48.65525" lon="1.95909">
			<ele>171</ele>			<time>2025-02-27T19:14:54Z</time>
			</trkpt>
						<trkpt lat="48.65488" lon="1.95991">
			<ele>168</ele>			<time>2025-02-27T19:14:54Z</time>
			</trkpt>
						<trkpt lat="48.65474" lon="1.96021">
			<ele>168</ele>			<time>2025-02-27T19:14:54Z</time>
			</trkpt>
						<trkpt lat="48.65351" lon="1.96279">
			<ele>170</ele>			<time>2025-02-27T19:14:54Z</time>
			</trkpt>
						<trkpt lat="48.6532" lon="1.96345">
			<ele>170</ele>			<time>2025-02-27T19:14:54Z</time>
			</trkpt>
						<trkpt lat="48.65315" lon="1.96365">
			<ele>170</ele>			<time>2025-02-27T19:14:54Z</time>
			</trkpt>
						<trkpt lat="48.65311" lon="1.96418">
			<ele>171</ele>			<time>2025-02-27T19:14:54Z</time>
			</trkpt>
						<trkpt lat="48.65296" lon="1.96421">
			<ele>171</ele>			<time>2025-02-27T19:14:54Z</time>
			</trkpt>
						<trkpt lat="48.65264" lon="1.96432">
			<ele>172</ele>			<time>2025-02-27T19:14:54Z</time>
			</trkpt>
						<trkpt lat="48.65225" lon="1.96452">
			<ele>172</ele>			<time>2025-02-27T19:14:54Z</time>
			</trkpt>
						<trkpt lat="48.65158" lon="1.96499">
			<ele>173</ele>			<time>2025-02-27T19:14:54Z</time>
			</trkpt>
						<trkpt lat="48.651" lon="1.96543">
			<ele>172</ele>			<time>2025-02-27T19:14:54Z</time>
			</trkpt>
						<trkpt lat="48.65075" lon="1.96558">
			<ele>171</ele>			<time>2025-02-27T19:14:54Z</time>
			</trkpt>
						<trkpt lat="48.65047" lon="1.96572">
			<ele>171</ele>			<time>2025-02-27T19:14:54Z</time>
			</trkpt>
						<trkpt lat="48.64995" lon="1.96588">
			<ele>170</ele>			<time>2025-02-27T19:14:54Z</time>
			</trkpt>
						<trkpt lat="48.64902" lon="1.96607">
			<ele>172</ele>			<time>2025-02-27T19:14:54Z</time>
			</trkpt>
						<trkpt lat="48.64862" lon="1.96618">
			<ele>172</ele>			<time>2025-02-27T19:14:54Z</time>
			</trkpt>
						<trkpt lat="48.64772" lon="1.96657">
			<ele>172</ele>			<time>2025-02-27T19:14:54Z</time>
			</trkpt>
						<trkpt lat="48.64756" lon="1.96663">
			<ele>172</ele>			<time>2025-02-27T19:14:54Z</time>
			</trkpt>
						<trkpt lat="48.64743" lon="1.96666">
			<ele>172</ele>			<time>2025-02-27T19:14:54Z</time>
			</trkpt>
						<trkpt lat="48.64702" lon="1.96667">
			<ele>172</ele>			<time>2025-02-27T19:14:54Z</time>
			</trkpt>
						<trkpt lat="48.64674" lon="1.9667">
			<ele>172</ele>			<time>2025-02-27T19:14:54Z</time>
			</trkpt>
						<trkpt lat="48.64649" lon="1.96681">
			<ele>172</ele>			<time>2025-02-27T19:14:54Z</time>
			</trkpt>
						<trkpt lat="48.64629" lon="1.967">
			<ele>172</ele>			<time>2025-02-27T19:14:54Z</time>
			</trkpt>
						<trkpt lat="48.64587" lon="1.96754">
			<ele>171</ele>			<time>2025-02-27T19:14:54Z</time>
			</trkpt>
						<trkpt lat="48.6453" lon="1.96699">
			<ele>173</ele>			<time>2025-02-27T19:14:54Z</time>
			</trkpt>
						<trkpt lat="48.64513" lon="1.96685">
			<ele>173</ele>			<time>2025-02-27T19:14:54Z</time>
			</trkpt>
						<trkpt lat="48.64497" lon="1.96677">
			<ele>173</ele>			<time>2025-02-27T19:14:54Z</time>
			</trkpt>
						<trkpt lat="48.64467" lon="1.96672">
			<ele>174</ele>			<time>2025-02-27T19:14:54Z</time>
			</trkpt>
						<trkpt lat="48.6441" lon="1.96675">
			<ele>175</ele>			<time>2025-02-27T19:14:54Z</time>
			</trkpt>
						<trkpt lat="48.64372" lon="1.96673">
			<ele>174</ele>			<time>2025-02-27T19:14:54Z</time>
			</trkpt>
						<trkpt lat="48.64336" lon="1.96662">
			<ele>174</ele>			<time>2025-02-27T19:14:54Z</time>
			</trkpt>
						<trkpt lat="48.64258" lon="1.96634">
			<ele>175</ele>			<time>2025-02-27T19:14:54Z</time>
			</trkpt>
						<trkpt lat="48.64235" lon="1.96667">
			<ele>175</ele>			<time>2025-02-27T19:14:54Z</time>
			</trkpt>
						<trkpt lat="48.64211" lon="1.96726">
			<ele>174</ele>			<time>2025-02-27T19:14:54Z</time>
			</trkpt>
						<trkpt lat="48.64204" lon="1.96742">
			<ele>174</ele>			<time>2025-02-27T19:14:54Z</time>
			</trkpt>
						<trkpt lat="48.64165" lon="1.96803">
			<ele>174</ele>			<time>2025-02-27T19:14:54Z</time>
			</trkpt>
						<trkpt lat="48.64135" lon="1.96854">
			<ele>173</ele>			<time>2025-02-27T19:14:54Z</time>
			</trkpt>
						<trkpt lat="48.64126" lon="1.96861">
			<ele>173</ele>			<time>2025-02-27T19:14:54Z</time>
			</trkpt>
						<trkpt lat="48.64107" lon="1.96865">
			<ele>172</ele>			<time>2025-02-27T19:14:54Z</time>
			</trkpt>
						<trkpt lat="48.64042" lon="1.96871">
			<ele>171</ele>			<time>2025-02-27T19:14:54Z</time>
			</trkpt>
						<trkpt lat="48.64012" lon="1.96878">
			<ele>171</ele>			<time>2025-02-27T19:14:54Z</time>
			</trkpt>
						<trkpt lat="48.63959" lon="1.96906">
			<ele>171</ele>			<time>2025-02-27T19:14:54Z</time>
			</trkpt>
						<trkpt lat="48.63864" lon="1.96963">
			<ele>171</ele>			<time>2025-02-27T19:14:54Z</time>
			</trkpt>
						<trkpt lat="48.63836" lon="1.96985">
			<ele>170</ele>			<time>2025-02-27T19:14:54Z</time>
			</trkpt>
						<trkpt lat="48.63825" lon="1.97001">
			<ele>170</ele>			<time>2025-02-27T19:14:54Z</time>
			</trkpt>
						<trkpt lat="48.63816" lon="1.97021">
			<ele>169</ele>			<time>2025-02-27T19:14:54Z</time>
			</trkpt>
						<trkpt lat="48.63806" lon="1.97052">
			<ele>169</ele>			<time>2025-02-27T19:14:54Z</time>
			</trkpt>
						<trkpt lat="48.63802" lon="1.9709">
			<ele>168</ele>			<time>2025-02-27T19:14:54Z</time>
			</trkpt>
						<trkpt lat="48.63788" lon="1.97201">
			<ele>163</ele>			<time>2025-02-27T19:14:54Z</time>
			</trkpt>
						<trkpt lat="48.63767" lon="1.97314">
			<ele>157</ele>			<time>2025-02-27T19:14:54Z</time>
			</trkpt>
						<trkpt lat="48.63749" lon="1.97395">
			<ele>150</ele>			<time>2025-02-27T19:14:54Z</time>
			</trkpt>
						<trkpt lat="48.6374" lon="1.97425">
			<ele>147</ele>			<time>2025-02-27T19:14:54Z</time>
			</trkpt>
						<trkpt lat="48.63711" lon="1.97506">
			<ele>141</ele>			<time>2025-02-27T19:14:54Z</time>
			</trkpt>
						<trkpt lat="48.63678" lon="1.97586">
			<ele>136</ele>			<time>2025-02-27T19:14:54Z</time>
			</trkpt>
						<trkpt lat="48.63652" lon="1.9764">
			<ele>133</ele>			<time>2025-02-27T19:14:54Z</time>
			</trkpt>
						<trkpt lat="48.63628" lon="1.97673">
			<ele>131</ele>			<time>2025-02-27T19:14:54Z</time>
			</trkpt>
						<trkpt lat="48.63603" lon="1.97701">
			<ele>130</ele>			<time>2025-02-27T19:14:54Z</time>
			</trkpt>
						<trkpt lat="48.63595" lon="1.97716">
			<ele>129</ele>			<time>2025-02-27T19:14:54Z</time>
			</trkpt>
						<trkpt lat="48.63577" lon="1.97768">
			<ele>127</ele>			<time>2025-02-27T19:14:54Z</time>
			</trkpt>
						<trkpt lat="48.63558" lon="1.97809">
			<ele>125</ele>			<time>2025-02-27T19:14:54Z</time>
			</trkpt>
						<trkpt lat="48.63535" lon="1.97846">
			<ele>124</ele>			<time>2025-02-27T19:14:54Z</time>
			</trkpt>
						<trkpt lat="48.63436" lon="1.97963">
			<ele>119</ele>			<time>2025-02-27T19:14:54Z</time>
			</trkpt>
						<trkpt lat="48.63426" lon="1.97978">
			<ele>119</ele>			<time>2025-02-27T19:14:54Z</time>
			</trkpt>
						<trkpt lat="48.6342" lon="1.97995">
			<ele>119</ele>			<time>2025-02-27T19:14:54Z</time>
			</trkpt>
						<trkpt lat="48.63402" lon="1.98076">
			<ele>118</ele>			<time>2025-02-27T19:14:54Z</time>
			</trkpt>
						<trkpt lat="48.63378" lon="1.98142">
			<ele>125</ele>			<time>2025-02-27T19:14:54Z</time>
			</trkpt>
						<trkpt lat="48.6337" lon="1.98156">
			<ele>127</ele>			<time>2025-02-27T19:14:54Z</time>
			</trkpt>
						<trkpt lat="48.63345" lon="1.9819">
			<ele>130</ele>			<time>2025-02-27T19:14:54Z</time>
			</trkpt>
						<trkpt lat="48.63326" lon="1.98223">
			<ele>131</ele>			<time>2025-02-27T19:14:54Z</time>
			</trkpt>
						<trkpt lat="48.63312" lon="1.98266">
			<ele>131</ele>			<time>2025-02-27T19:14:54Z</time>
			</trkpt>
						<trkpt lat="48.63302" lon="1.98339">
			<ele>131</ele>			<time>2025-02-27T19:14:54Z</time>
			</trkpt>
						<trkpt lat="48.63296" lon="1.98508">
			<ele>127</ele>			<time>2025-02-27T19:14:54Z</time>
			</trkpt>
						<trkpt lat="48.63298" lon="1.98629">
			<ele>125</ele>			<time>2025-02-27T19:14:54Z</time>
			</trkpt>
						<trkpt lat="48.63296" lon="1.9875">
			<ele>125</ele>			<time>2025-02-27T19:14:54Z</time>
			</trkpt>
						<trkpt lat="48.63291" lon="1.98785">
			<ele>126</ele>			<time>2025-02-27T19:14:54Z</time>
			</trkpt>
						<trkpt lat="48.63261" lon="1.98926">
			<ele>125</ele>			<time>2025-02-27T19:14:54Z</time>
			</trkpt>
						<trkpt lat="48.63254" lon="1.98956">
			<ele>125</ele>			<time>2025-02-27T19:14:54Z</time>
			</trkpt>
						<trkpt lat="48.63248" lon="1.98977">
			<ele>124</ele>			<time>2025-02-27T19:14:54Z</time>
			</trkpt>
						<trkpt lat="48.63236" lon="1.99007">
			<ele>123</ele>			<time>2025-02-27T19:14:54Z</time>
			</trkpt>
						<trkpt lat="48.63229" lon="1.99019">
			<ele>123</ele>			<time>2025-02-27T19:14:54Z</time>
			</trkpt>
						<trkpt lat="48.63217" lon="1.9903">
			<ele>122</ele>			<time>2025-02-27T19:14:54Z</time>
			</trkpt>
						<trkpt lat="48.63201" lon="1.99039">
			<ele>121</ele>			<time>2025-02-27T19:14:54Z</time>
			</trkpt>
						<trkpt lat="48.63176" lon="1.9904">
			<ele>119</ele>			<time>2025-02-27T19:14:54Z</time>
			</trkpt>
						<trkpt lat="48.63154" lon="1.99034">
			<ele>118</ele>			<time>2025-02-27T19:14:54Z</time>
			</trkpt>
						<trkpt lat="48.63064" lon="1.98992">
			<ele>114</ele>			<time>2025-02-27T19:14:54Z</time>
			</trkpt>
						<trkpt lat="48.63008" lon="1.98964">
			<ele>111</ele>			<time>2025-02-27T19:14:54Z</time>
			</trkpt>
						<trkpt lat="48.62989" lon="1.9895">
			<ele>110</ele>			<time>2025-02-27T19:14:54Z</time>
			</trkpt>
						<trkpt lat="48.62964" lon="1.98926">
			<ele>110</ele>			<time>2025-02-27T19:14:54Z</time>
			</trkpt>
						<trkpt lat="48.62925" lon="1.98883">
			<ele>110</ele>			<time>2025-02-27T19:14:54Z</time>
			</trkpt>
						<trkpt lat="48.62912" lon="1.9887">
			<ele>110</ele>			<time>2025-02-27T19:14:54Z</time>
			</trkpt>
						<trkpt lat="48.62896" lon="1.98859">
			<ele>109</ele>			<time>2025-02-27T19:14:54Z</time>
			</trkpt>
						<trkpt lat="48.62831" lon="1.98807">
			<ele>109</ele>			<time>2025-02-27T19:14:54Z</time>
			</trkpt>
						<trkpt lat="48.62775" lon="1.9876">
			<ele>110</ele>			<time>2025-02-27T19:14:54Z</time>
			</trkpt>
						<trkpt lat="48.62759" lon="1.98755">
			<ele>111</ele>			<time>2025-02-27T19:14:54Z</time>
			</trkpt>
						<trkpt lat="48.62743" lon="1.98758">
			<ele>111</ele>			<time>2025-02-27T19:14:54Z</time>
			</trkpt>
						<trkpt lat="48.62628" lon="1.9881">
			<ele>109</ele>			<time>2025-02-27T19:14:54Z</time>
			</trkpt>
						<trkpt lat="48.6258" lon="1.98838">
			<ele>109</ele>			<time>2025-02-27T19:14:54Z</time>
			</trkpt>
						<trkpt lat="48.62572" lon="1.98844">
			<ele>109</ele>			<time>2025-02-27T19:14:54Z</time>
			</trkpt>
						<trkpt lat="48.62526" lon="1.98873">
			<ele>108</ele>			<time>2025-02-27T19:14:54Z</time>
			</trkpt>
						<trkpt lat="48.62425" lon="1.98951">
			<ele>107</ele>			<time>2025-02-27T19:14:54Z</time>
			</trkpt>
						<trkpt lat="48.62371" lon="1.98997">
			<ele>107</ele>			<time>2025-02-27T19:14:54Z</time>
			</trkpt>
						<trkpt lat="48.62354" lon="1.99009">
			<ele>106</ele>			<time>2025-02-27T19:14:54Z</time>
			</trkpt>
						<trkpt lat="48.62343" lon="1.99012">
			<ele>106</ele>			<time>2025-02-27T19:14:54Z</time>
			</trkpt>
						<trkpt lat="48.62332" lon="1.99037">
			<ele>105</ele>			<time>2025-02-27T19:14:54Z</time>
			</trkpt>
						<trkpt lat="48.62313" lon="1.99068">
			<ele>104</ele>			<time>2025-02-27T19:14:54Z</time>
			</trkpt>
						<trkpt lat="48.62262" lon="1.99127">
			<ele>104</ele>			<time>2025-02-27T19:14:54Z</time>
			</trkpt>
						<trkpt lat="48.6223" lon="1.99161">
			<ele>103</ele>			<time>2025-02-27T19:14:54Z</time>
			</trkpt>
						<trkpt lat="48.62182" lon="1.99219">
			<ele>103</ele>			<time>2025-02-27T19:14:54Z</time>
			</trkpt>
						<trkpt lat="48.62163" lon="1.99191">
			<ele>104</ele>			<time>2025-02-27T19:14:54Z</time>
			</trkpt>
						<trkpt lat="48.62154" lon="1.99184">
			<ele>103</ele>			<time>2025-02-27T19:14:54Z</time>
			</trkpt>
						<trkpt lat="48.62142" lon="1.99165">
			<ele>103</ele>			<time>2025-02-27T19:14:54Z</time>
			</trkpt>
						<trkpt lat="48.62096" lon="1.99079">
			<ele>101</ele>			<time>2025-02-27T19:14:54Z</time>
			</trkpt>
						<trkpt lat="48.62081" lon="1.99046">
			<ele>102</ele>			<time>2025-02-27T19:14:54Z</time>
			</trkpt>
						<trkpt lat="48.6204" lon="1.98933">
			<ele>103</ele>			<time>2025-02-27T19:14:54Z</time>
			</trkpt>
						<trkpt lat="48.62021" lon="1.9889">
			<ele>103</ele>			<time>2025-02-27T19:14:54Z</time>
			</trkpt>
						<trkpt lat="48.62009" lon="1.9887">
			<ele>103</ele>			<time>2025-02-27T19:14:54Z</time>
			</trkpt>
						<trkpt lat="48.6199" lon="1.98849">
			<ele>102</ele>			<time>2025-02-27T19:14:54Z</time>
			</trkpt>
						<trkpt lat="48.61918" lon="1.98791">
			<ele>101</ele>			<time>2025-02-27T19:14:54Z</time>
			</trkpt>
						<trkpt lat="48.61885" lon="1.98763">
			<ele>101</ele>			<time>2025-02-27T19:14:54Z</time>
			</trkpt>
						<trkpt lat="48.61838" lon="1.98717">
			<ele>101</ele>			<time>2025-02-27T19:14:54Z</time>
			</trkpt>
						<trkpt lat="48.61808" lon="1.98678">
			<ele>102</ele>			<time>2025-02-27T19:14:54Z</time>
			</trkpt>
						<trkpt lat="48.61797" lon="1.98656">
			<ele>102</ele>			<time>2025-02-27T19:14:54Z</time>
			</trkpt>
						<trkpt lat="48.61781" lon="1.98609">
			<ele>102</ele>			<time>2025-02-27T19:14:54Z</time>
			</trkpt>
						<trkpt lat="48.61765" lon="1.98567">
			<ele>102</ele>			<time>2025-02-27T19:14:54Z</time>
			</trkpt>
						<trkpt lat="48.6175" lon="1.98538">
			<ele>102</ele>			<time>2025-02-27T19:14:54Z</time>
			</trkpt>
						<trkpt lat="48.61726" lon="1.98509">
			<ele>102</ele>			<time>2025-02-27T19:14:54Z</time>
			</trkpt>
						<trkpt lat="48.61634" lon="1.98409">
			<ele>105</ele>			<time>2025-02-27T19:14:54Z</time>
			</trkpt>
						<trkpt lat="48.61596" lon="1.98361">
			<ele>108</ele>			<time>2025-02-27T19:14:54Z</time>
			</trkpt>
						<trkpt lat="48.61508" lon="1.98233">
			<ele>108</ele>			<time>2025-02-27T19:14:54Z</time>
			</trkpt>
						<trkpt lat="48.61483" lon="1.98192">
			<ele>109</ele>			<time>2025-02-27T19:14:54Z</time>
			</trkpt>
						<trkpt lat="48.61405" lon="1.98343">
			<ele>100</ele>			<time>2025-02-27T19:14:54Z</time>
			</trkpt>
						<trkpt lat="48.61363" lon="1.98415">
			<ele>98</ele>			<time>2025-02-27T19:14:54Z</time>
			</trkpt>
						<trkpt lat="48.61333" lon="1.98469">
			<ele>96</ele>			<time>2025-02-27T19:14:54Z</time>
			</trkpt>
						<trkpt lat="48.61326" lon="1.98497">
			<ele>96</ele>			<time>2025-02-27T19:14:54Z</time>
			</trkpt>
						<trkpt lat="48.6132" lon="1.9858">
			<ele>98</ele>			<time>2025-02-27T19:14:54Z</time>
			</trkpt>
						<trkpt lat="48.61321" lon="1.98595">
			<ele>98</ele>			<time>2025-02-27T19:14:54Z</time>
			</trkpt>
						<trkpt lat="48.61327" lon="1.98625">
			<ele>98</ele>			<time>2025-02-27T19:14:54Z</time>
			</trkpt>
						<trkpt lat="48.61343" lon="1.98654">
			<ele>99</ele>			<time>2025-02-27T19:14:54Z</time>
			</trkpt>
						<trkpt lat="48.61346" lon="1.98666">
			<ele>99</ele>			<time>2025-02-27T19:14:54Z</time>
			</trkpt>
						<trkpt lat="48.61342" lon="1.98699">
			<ele>100</ele>			<time>2025-02-27T19:14:54Z</time>
			</trkpt>
						<trkpt lat="48.6134" lon="1.98728">
			<ele>101</ele>			<time>2025-02-27T19:14:54Z</time>
			</trkpt>
						<trkpt lat="48.61378" lon="1.98765">
			<ele>104</ele>			<time>2025-02-27T19:14:54Z</time>
			</trkpt>
						<trkpt lat="48.6139" lon="1.98778">
			<ele>105</ele>			<time>2025-02-27T19:14:54Z</time>
			</trkpt>
						<trkpt lat="48.61397" lon="1.9879">
			<ele>105</ele>			<time>2025-02-27T19:14:54Z</time>
			</trkpt>
						<trkpt lat="48.61407" lon="1.98819">
			<ele>107</ele>			<time>2025-02-27T19:14:54Z</time>
			</trkpt>
						<trkpt lat="48.61411" lon="1.98846">
			<ele>108</ele>			<time>2025-02-27T19:14:54Z</time>
			</trkpt>
						<trkpt lat="48.61406" lon="1.99026">
			<ele>116</ele>			<time>2025-02-27T19:14:54Z</time>
			</trkpt>
						<trkpt lat="48.61406" lon="1.99043">
			<ele>117</ele>			<time>2025-02-27T19:14:54Z</time>
			</trkpt>
						<trkpt lat="48.61408" lon="1.99076">
			<ele>119</ele>			<time>2025-02-27T19:14:54Z</time>
			</trkpt>
						<trkpt lat="48.61414" lon="1.99114">
			<ele>120</ele>			<time>2025-02-27T19:14:54Z</time>
			</trkpt>
						<trkpt lat="48.61438" lon="1.9921">
			<ele>124</ele>			<time>2025-02-27T19:14:54Z</time>
			</trkpt>
						<trkpt lat="48.61444" lon="1.99239">
			<ele>124</ele>			<time>2025-02-27T19:14:54Z</time>
			</trkpt>
						<trkpt lat="48.61458" lon="1.99318">
			<ele>127</ele>			<time>2025-02-27T19:14:54Z</time>
			</trkpt>
						<trkpt lat="48.61465" lon="1.99379">
			<ele>128</ele>			<time>2025-02-27T19:14:54Z</time>
			</trkpt>
						<trkpt lat="48.61485" lon="1.99604">
			<ele>128</ele>			<time>2025-02-27T19:14:54Z</time>
			</trkpt>
						<trkpt lat="48.61492" lon="1.99715">
			<ele>125</ele>			<time>2025-02-27T19:14:54Z</time>
			</trkpt>
						<trkpt lat="48.61498" lon="1.99895">
			<ele>121</ele>			<time>2025-02-27T19:14:54Z</time>
			</trkpt>
						<trkpt lat="48.61499" lon="1.9991">
			<ele>121</ele>			<time>2025-02-27T19:14:54Z</time>
			</trkpt>
						<trkpt lat="48.61515" lon="1.99911">
			<ele>120</ele>			<time>2025-02-27T19:14:54Z</time>
			</trkpt>
						<trkpt lat="48.61556" lon="1.99915">
			<ele>118</ele>			<time>2025-02-27T19:14:54Z</time>
			</trkpt>
						<trkpt lat="48.61637" lon="1.99918">
			<ele>115</ele>			<time>2025-02-27T19:14:54Z</time>
			</trkpt>
						<trkpt lat="48.61818" lon="1.99931">
			<ele>114</ele>			<time>2025-02-27T19:14:54Z</time>
			</trkpt>
						<trkpt lat="48.61879" lon="1.99926">
			<ele>113</ele>			<time>2025-02-27T19:14:54Z</time>
			</trkpt>
						<trkpt lat="48.61952" lon="1.99926">
			<ele>112</ele>			<time>2025-02-27T19:14:54Z</time>
			</trkpt>
						<trkpt lat="48.61962" lon="1.99928">
			<ele>112</ele>			<time>2025-02-27T19:14:54Z</time>
			</trkpt>
						<trkpt lat="48.61997" lon="1.99926">
			<ele>111</ele>			<time>2025-02-27T19:14:54Z</time>
			</trkpt>
						<trkpt lat="48.62016" lon="1.99918">
			<ele>111</ele>			<time>2025-02-27T19:14:54Z</time>
			</trkpt>
						<trkpt lat="48.62055" lon="1.99891">
			<ele>112</ele>			<time>2025-02-27T19:14:54Z</time>
			</trkpt>
						<trkpt lat="48.62153" lon="1.9982">
			<ele>114</ele>			<time>2025-02-27T19:14:54Z</time>
			</trkpt>
						<trkpt lat="48.62185" lon="1.99783">
			<ele>115</ele>			<time>2025-02-27T19:14:54Z</time>
			</trkpt>
						<trkpt lat="48.62198" lon="1.99761">
			<ele>115</ele>			<time>2025-02-27T19:14:54Z</time>
			</trkpt>
						<trkpt lat="48.62202" lon="1.99749">
			<ele>114</ele>			<time>2025-02-27T19:14:54Z</time>
			</trkpt>
						<trkpt lat="48.62217" lon="1.99737">
			<ele>114</ele>			<time>2025-02-27T19:14:54Z</time>
			</trkpt>
						<trkpt lat="48.6225" lon="1.99704">
			<ele>114</ele>			<time>2025-02-27T19:14:54Z</time>
			</trkpt>
						<trkpt lat="48.62307" lon="1.99659">
			<ele>110</ele>			<time>2025-02-27T19:14:54Z</time>
			</trkpt>
						<trkpt lat="48.62336" lon="1.99638">
			<ele>109</ele>			<time>2025-02-27T19:14:54Z</time>
			</trkpt>
						<trkpt lat="48.62344" lon="1.99624">
			<ele>109</ele>			<time>2025-02-27T19:14:54Z</time>
			</trkpt>
						<trkpt lat="48.62357" lon="1.99591">
			<ele>108</ele>			<time>2025-02-27T19:14:54Z</time>
			</trkpt>
						<trkpt lat="48.62368" lon="1.99569">
			<ele>108</ele>			<time>2025-02-27T19:14:54Z</time>
			</trkpt>
						<trkpt lat="48.62384" lon="1.99548">
			<ele>109</ele>			<time>2025-02-27T19:14:54Z</time>
			</trkpt>
						<trkpt lat="48.62405" lon="1.99536">
			<ele>109</ele>			<time>2025-02-27T19:14:54Z</time>
			</trkpt>
						<trkpt lat="48.62431" lon="1.99533">
			<ele>111</ele>			<time>2025-02-27T19:14:54Z</time>
			</trkpt>
						<trkpt lat="48.62463" lon="1.99558">
			<ele>112</ele>			<time>2025-02-27T19:14:54Z</time>
			</trkpt>
						<trkpt lat="48.62482" lon="1.99577">
			<ele>114</ele>			<time>2025-02-27T19:14:54Z</time>
			</trkpt>
						<trkpt lat="48.62526" lon="1.99632">
			<ele>117</ele>			<time>2025-02-27T19:14:54Z</time>
			</trkpt>
						<trkpt lat="48.6257" lon="1.99682">
			<ele>120</ele>			<time>2025-02-27T19:14:54Z</time>
			</trkpt>
						<trkpt lat="48.62609" lon="1.99721">
			<ele>121</ele>			<time>2025-02-27T19:14:54Z</time>
			</trkpt>
						<trkpt lat="48.62658" lon="1.99756">
			<ele>123</ele>			<time>2025-02-27T19:14:54Z</time>
			</trkpt>
						<trkpt lat="48.6274" lon="1.99798">
			<ele>129</ele>			<time>2025-02-27T19:14:54Z</time>
			</trkpt>
						<trkpt lat="48.62764" lon="1.99807">
			<ele>129</ele>			<time>2025-02-27T19:14:54Z</time>
			</trkpt>
						<trkpt lat="48.62786" lon="1.99809">
			<ele>129</ele>			<time>2025-02-27T19:14:54Z</time>
			</trkpt>
						<trkpt lat="48.62894" lon="1.99899">
			<ele>129</ele>			<time>2025-02-27T19:14:54Z</time>
			</trkpt>
						<trkpt lat="48.6293" lon="1.99913">
			<ele>131</ele>			<time>2025-02-27T19:14:54Z</time>
			</trkpt>
						<trkpt lat="48.63008" lon="1.99939">
			<ele>131</ele>			<time>2025-02-27T19:14:54Z</time>
			</trkpt>
						<trkpt lat="48.6311" lon="1.99972">
			<ele>133</ele>			<time>2025-02-27T19:14:54Z</time>
			</trkpt>
						<trkpt lat="48.63155" lon="1.99987">
			<ele>133</ele>			<time>2025-02-27T19:14:54Z</time>
			</trkpt>
						<trkpt lat="48.63182" lon="1.99992">
			<ele>133</ele>			<time>2025-02-27T19:14:54Z</time>
			</trkpt>
						<trkpt lat="48.6331" lon="2.00004">
			<ele>135</ele>			<time>2025-02-27T19:14:54Z</time>
			</trkpt>
						<trkpt lat="48.63369" lon="2.00009">
			<ele>135</ele>			<time>2025-02-27T19:14:54Z</time>
			</trkpt>
						<trkpt lat="48.63383" lon="2.00021">
			<ele>135</ele>			<time>2025-02-27T19:14:54Z</time>
			</trkpt>
						<trkpt lat="48.63485" lon="2.00043">
			<ele>139</ele>			<time>2025-02-27T19:14:54Z</time>
			</trkpt>
						<trkpt lat="48.63514" lon="2.00056">
			<ele>141</ele>			<time>2025-02-27T19:14:54Z</time>
			</trkpt>
						<trkpt lat="48.63571" lon="2.00093">
			<ele>145</ele>			<time>2025-02-27T19:14:54Z</time>
			</trkpt>
						<trkpt lat="48.63592" lon="2.00117">
			<ele>148</ele>			<time>2025-02-27T19:14:54Z</time>
			</trkpt>
						<trkpt lat="48.63619" lon="2.00152">
			<ele>151</ele>			<time>2025-02-27T19:14:54Z</time>
			</trkpt>
						<trkpt lat="48.63653" lon="2.0019">
			<ele>154</ele>			<time>2025-02-27T19:14:54Z</time>
			</trkpt>
						<trkpt lat="48.63689" lon="2.00226">
			<ele>156</ele>			<time>2025-02-27T19:14:54Z</time>
			</trkpt>
						<trkpt lat="48.63704" lon="2.00236">
			<ele>156</ele>			<time>2025-02-27T19:14:54Z</time>
			</trkpt>
						<trkpt lat="48.6372" lon="2.0024">
			<ele>156</ele>			<time>2025-02-27T19:14:54Z</time>
			</trkpt>
						<trkpt lat="48.63746" lon="2.00237">
			<ele>156</ele>			<time>2025-02-27T19:14:54Z</time>
			</trkpt>
						<trkpt lat="48.63788" lon="2.00221">
			<ele>159</ele>			<time>2025-02-27T19:14:54Z</time>
			</trkpt>
						<trkpt lat="48.6384" lon="2.00216">
			<ele>162</ele>			<time>2025-02-27T19:14:54Z</time>
			</trkpt>
						<trkpt lat="48.63855" lon="2.0022">
			<ele>163</ele>			<time>2025-02-27T19:14:54Z</time>
			</trkpt>
						<trkpt lat="48.63868" lon="2.00224">
			<ele>163</ele>			<time>2025-02-27T19:14:54Z</time>
			</trkpt>
						<trkpt lat="48.63917" lon="2.00252">
			<ele>165</ele>			<time>2025-02-27T19:14:54Z</time>
			</trkpt>
						<trkpt lat="48.63931" lon="2.00265">
			<ele>166</ele>			<time>2025-02-27T19:14:54Z</time>
			</trkpt>
						<trkpt lat="48.63953" lon="2.00298">
			<ele>166</ele>			<time>2025-02-27T19:14:54Z</time>
			</trkpt>
						<trkpt lat="48.63957" lon="2.00245">
			<ele>167</ele>			<time>2025-02-27T19:14:54Z</time>
			</trkpt>
						<trkpt lat="48.63956" lon="2.00195">
			<ele>169</ele>			<time>2025-02-27T19:14:54Z</time>
			</trkpt>
						<trkpt lat="48.6395" lon="2.00059">
			<ele>170</ele>			<time>2025-02-27T19:14:54Z</time>
			</trkpt>
						<trkpt lat="48.63971" lon="1.99906">
			<ele>171</ele>			<time>2025-02-27T19:14:54Z</time>
			</trkpt>
						<trkpt lat="48.63987" lon="1.99802">
			<ele>172</ele>			<time>2025-02-27T19:14:54Z</time>
			</trkpt>
						<trkpt lat="48.64012" lon="1.99661">
			<ele>173</ele>			<time>2025-02-27T19:14:54Z</time>
			</trkpt>
						<trkpt lat="48.64019" lon="1.99573">
			<ele>171</ele>			<time>2025-02-27T19:14:54Z</time>
			</trkpt>
						<trkpt lat="48.64024" lon="1.99479">
			<ele>168</ele>			<time>2025-02-27T19:14:54Z</time>
			</trkpt>
						<trkpt lat="48.64024" lon="1.99327">
			<ele>169</ele>			<time>2025-02-27T19:14:54Z</time>
			</trkpt>
						<trkpt lat="48.64026" lon="1.99248">
			<ele>171</ele>			<time>2025-02-27T19:14:54Z</time>
			</trkpt>
						<trkpt lat="48.64062" lon="1.98948">
			<ele>173</ele>			<time>2025-02-27T19:14:54Z</time>
			</trkpt>
						<trkpt lat="48.64078" lon="1.98836">
			<ele>173</ele>			<time>2025-02-27T19:14:54Z</time>
			</trkpt>
						<trkpt lat="48.64096" lon="1.98767">
			<ele>175</ele>			<time>2025-02-27T19:14:54Z</time>
			</trkpt>
						<trkpt lat="48.64102" lon="1.98729">
			<ele>175</ele>			<time>2025-02-27T19:14:54Z</time>
			</trkpt>
						<trkpt lat="48.64101" lon="1.98704">
			<ele>175</ele>			<time>2025-02-27T19:14:54Z</time>
			</trkpt>
						<trkpt lat="48.64109" lon="1.98659">
			<ele>176</ele>			<time>2025-02-27T19:14:54Z</time>
			</trkpt>
						<trkpt lat="48.64115" lon="1.98642">
			<ele>176</ele>			<time>2025-02-27T19:14:54Z</time>
			</trkpt>
						<trkpt lat="48.64128" lon="1.98624">
			<ele>175</ele>			<time>2025-02-27T19:14:54Z</time>
			</trkpt>
						<trkpt lat="48.6414" lon="1.98616">
			<ele>175</ele>			<time>2025-02-27T19:14:54Z</time>
			</trkpt>
						<trkpt lat="48.64189" lon="1.98587">
			<ele>173</ele>			<time>2025-02-27T19:14:54Z</time>
			</trkpt>
						<trkpt lat="48.6461" lon="1.98248">
			<ele>172</ele>			<time>2025-02-27T19:14:54Z</time>
			</trkpt>
						<trkpt lat="48.64648" lon="1.98228">
			<ele>173</ele>			<time>2025-02-27T19:14:54Z</time>
			</trkpt>
						<trkpt lat="48.64673" lon="1.9822">
			<ele>173</ele>			<time>2025-02-27T19:14:54Z</time>
			</trkpt>
						<trkpt lat="48.64727" lon="1.98211">
			<ele>174</ele>			<time>2025-02-27T19:14:54Z</time>
			</trkpt>
						<trkpt lat="48.64752" lon="1.98205">
			<ele>175</ele>			<time>2025-02-27T19:14:54Z</time>
			</trkpt>
						<trkpt lat="48.64766" lon="1.98199">
			<ele>174</ele>			<time>2025-02-27T19:14:54Z</time>
			</trkpt>
						<trkpt lat="48.64776" lon="1.98192">
			<ele>174</ele>			<time>2025-02-27T19:14:54Z</time>
			</trkpt>
						<trkpt lat="48.64794" lon="1.98174">
			<ele>175</ele>			<time>2025-02-27T19:14:54Z</time>
			</trkpt>
						<trkpt lat="48.64828" lon="1.98129">
			<ele>172</ele>			<time>2025-02-27T19:14:54Z</time>
			</trkpt>
						<trkpt lat="48.64865" lon="1.98073">
			<ele>169</ele>			<time>2025-02-27T19:14:54Z</time>
			</trkpt>
						<trkpt lat="48.64943" lon="1.97963">
			<ele>170</ele>			<time>2025-02-27T19:14:54Z</time>
			</trkpt>
						<trkpt lat="48.64957" lon="1.97938">
			<ele>170</ele>			<time>2025-02-27T19:14:54Z</time>
			</trkpt>
						<trkpt lat="48.64957" lon="1.9791">
			<ele>171</ele>			<time>2025-02-27T19:14:54Z</time>
			</trkpt>
						<trkpt lat="48.64885" lon="1.97808">
			<ele>170</ele>			<time>2025-02-27T19:14:54Z</time>
			</trkpt>
						<trkpt lat="48.64836" lon="1.9774">
			<ele>168</ele>			<time>2025-02-27T19:14:54Z</time>
			</trkpt>
						<trkpt lat="48.64785" lon="1.97666">
			<ele>168</ele>			<time>2025-02-27T19:14:54Z</time>
			</trkpt>
						<trkpt lat="48.64757" lon="1.97602">
			<ele>170</ele>			<time>2025-02-27T19:14:54Z</time>
			</trkpt>
						<trkpt lat="48.64675" lon="1.97401">
			<ele>168</ele>			<time>2025-02-27T19:14:54Z</time>
			</trkpt>
						<trkpt lat="48.64625" lon="1.9728">
			<ele>167</ele>			<time>2025-02-27T19:14:54Z</time>
			</trkpt>
						<trkpt lat="48.64617" lon="1.97246">
			<ele>167</ele>			<time>2025-02-27T19:14:54Z</time>
			</trkpt>
						<trkpt lat="48.64614" lon="1.97212">
			<ele>167</ele>			<time>2025-02-27T19:14:54Z</time>
			</trkpt>
						<trkpt lat="48.64615" lon="1.97186">
			<ele>167</ele>			<time>2025-02-27T19:14:54Z</time>
			</trkpt>
						<trkpt lat="48.64626" lon="1.97128">
			<ele>167</ele>			<time>2025-02-27T19:14:54Z</time>
			</trkpt>
						<trkpt lat="48.64663" lon="1.9701">
			<ele>168</ele>			<time>2025-02-27T19:14:54Z</time>
			</trkpt>
						<trkpt lat="48.64672" lon="1.96966">
			<ele>168</ele>			<time>2025-02-27T19:14:54Z</time>
			</trkpt>
						<trkpt lat="48.64671" lon="1.96936">
			<ele>168</ele>			<time>2025-02-27T19:14:54Z</time>
			</trkpt>
						<trkpt lat="48.64662" lon="1.96902">
			<ele>168</ele>			<time>2025-02-27T19:14:54Z</time>
			</trkpt>
						<trkpt lat="48.64651" lon="1.96874">
			<ele>169</ele>			<time>2025-02-27T19:14:54Z</time>
			</trkpt>
						<trkpt lat="48.64616" lon="1.96802">
			<ele>171</ele>			<time>2025-02-27T19:14:54Z</time>
			</trkpt>
						<trkpt lat="48.64605" lon="1.96782">
			<ele>171</ele>			<time>2025-02-27T19:14:54Z</time>
			</trkpt>
						<trkpt lat="48.64587" lon="1.96754">
			<ele>171</ele>			<time>2025-02-27T19:14:54Z</time>
			</trkpt>
						<trkpt lat="48.64629" lon="1.967">
			<ele>172</ele>			<time>2025-02-27T19:14:54Z</time>
			</trkpt>
						<trkpt lat="48.64649" lon="1.96681">
			<ele>172</ele>			<time>2025-02-27T19:14:54Z</time>
			</trkpt>
						<trkpt lat="48.64674" lon="1.9667">
			<ele>172</ele>			<time>2025-02-27T19:14:54Z</time>
			</trkpt>
						<trkpt lat="48.64702" lon="1.96667">
			<ele>172</ele>			<time>2025-02-27T19:14:54Z</time>
			</trkpt>
						<trkpt lat="48.64743" lon="1.96666">
			<ele>172</ele>			<time>2025-02-27T19:14:54Z</time>
			</trkpt>
						<trkpt lat="48.64758" lon="1.96662">
			<ele>172</ele>			<time>2025-02-27T19:14:54Z</time>
			</trkpt>
						<trkpt lat="48.64862" lon="1.96618">
			<ele>172</ele>			<time>2025-02-27T19:14:54Z</time>
			</trkpt>
						<trkpt lat="48.64951" lon="1.96596">
			<ele>171</ele>			<time>2025-02-27T19:14:54Z</time>
			</trkpt>
						<trkpt lat="48.65025" lon="1.9658">
			<ele>170</ele>			<time>2025-02-27T19:14:54Z</time>
			</trkpt>
						<trkpt lat="48.65067" lon="1.96563">
			<ele>171</ele>			<time>2025-02-27T19:14:54Z</time>
			</trkpt>
						<trkpt lat="48.651" lon="1.96543">
			<ele>172</ele>			<time>2025-02-27T19:14:54Z</time>
			</trkpt>
						<trkpt lat="48.65127" lon="1.96523">
			<ele>172</ele>			<time>2025-02-27T19:14:54Z</time>
			</trkpt>
						<trkpt lat="48.65197" lon="1.9647">
			<ele>173</ele>			<time>2025-02-27T19:14:54Z</time>
			</trkpt>
						<trkpt lat="48.65229" lon="1.96449">
			<ele>172</ele>			<time>2025-02-27T19:14:54Z</time>
			</trkpt>
						<trkpt lat="48.65264" lon="1.96432">
			<ele>172</ele>			<time>2025-02-27T19:14:54Z</time>
			</trkpt>
						<trkpt lat="48.65296" lon="1.96421">
			<ele>171</ele>			<time>2025-02-27T19:14:54Z</time>
			</trkpt>
						<trkpt lat="48.6532" lon="1.96419">
			<ele>170</ele>			<time>2025-02-27T19:14:54Z</time>
			</trkpt>
						<trkpt lat="48.65352" lon="1.96432">
			<ele>171</ele>			<time>2025-02-27T19:14:54Z</time>
			</trkpt>
						<trkpt lat="48.65378" lon="1.9645">
			<ele>172</ele>			<time>2025-02-27T19:14:54Z</time>
			</trkpt>
						<trkpt lat="48.65468" lon="1.96501">
			<ele>173</ele>			<time>2025-02-27T19:14:54Z</time>
			</trkpt>
						<trkpt lat="48.65482" lon="1.96506">
			<ele>172</ele>			<time>2025-02-27T19:14:54Z</time>
			</trkpt>
						<trkpt lat="48.6551" lon="1.96509">
			<ele>172</ele>			<time>2025-02-27T19:14:54Z</time>
			</trkpt>
						<trkpt lat="48.65538" lon="1.96504">
			<ele>172</ele>			<time>2025-02-27T19:14:54Z</time>
			</trkpt>
						<trkpt lat="48.65588" lon="1.96487">
			<ele>172</ele>			<time>2025-02-27T19:14:54Z</time>
			</trkpt>
						<trkpt lat="48.65687" lon="1.96462">
			<ele>174</ele>			<time>2025-02-27T19:14:54Z</time>
			</trkpt>
						<trkpt lat="48.6571" lon="1.96459">
			<ele>175</ele>			<time>2025-02-27T19:14:54Z</time>
			</trkpt>
						<trkpt lat="48.65725" lon="1.9646">
			<ele>175</ele>			<time>2025-02-27T19:14:54Z</time>
			</trkpt>
						<trkpt lat="48.65737" lon="1.96464">
			<ele>175</ele>			<time>2025-02-27T19:14:54Z</time>
			</trkpt>
						<trkpt lat="48.65799" lon="1.96497">
			<ele>174</ele>			<time>2025-02-27T19:14:54Z</time>
			</trkpt>
						<trkpt lat="48.65821" lon="1.96505">
			<ele>173</ele>			<time>2025-02-27T19:14:54Z</time>
			</trkpt>
						<trkpt lat="48.65866" lon="1.96511">
			<ele>172</ele>			<time>2025-02-27T19:14:54Z</time>
			</trkpt>
						<trkpt lat="48.66015" lon="1.96532">
			<ele>170</ele>			<time>2025-02-27T19:14:54Z</time>
			</trkpt>
						<trkpt lat="48.66025" lon="1.96534">
			<ele>170</ele>			<time>2025-02-27T19:14:54Z</time>
			</trkpt>
						<trkpt lat="48.66183" lon="1.96578">
			<ele>169</ele>			<time>2025-02-27T19:14:54Z</time>
			</trkpt>
						<trkpt lat="48.66233" lon="1.96596">
			<ele>168</ele>			<time>2025-02-27T19:14:54Z</time>
			</trkpt>
						<trkpt lat="48.66249" lon="1.96606">
			<ele>168</ele>			<time>2025-02-27T19:14:54Z</time>
			</trkpt>
						<trkpt lat="48.66329" lon="1.96667">
			<ele>171</ele>			<time>2025-02-27T19:14:54Z</time>
			</trkpt>
						<trkpt lat="48.66444" lon="1.96767">
			<ele>171</ele>			<time>2025-02-27T19:14:54Z</time>
			</trkpt>
						<trkpt lat="48.66569" lon="1.96873">
			<ele>172</ele>			<time>2025-02-27T19:14:54Z</time>
			</trkpt>
						<trkpt lat="48.66648" lon="1.96943">
			<ele>171</ele>			<time>2025-02-27T19:14:54Z</time>
			</trkpt>
						<trkpt lat="48.66675" lon="1.96972">
			<ele>171</ele>			<time>2025-02-27T19:14:54Z</time>
			</trkpt>
						<trkpt lat="48.66697" lon="1.96993">
			<ele>171</ele>			<time>2025-02-27T19:14:54Z</time>
			</trkpt>
						<trkpt lat="48.6671" lon="1.97">
			<ele>172</ele>			<time>2025-02-27T19:14:54Z</time>
			</trkpt>
						<trkpt lat="48.66731" lon="1.97008">
			<ele>172</ele>			<time>2025-02-27T19:14:54Z</time>
			</trkpt>
						<trkpt lat="48.66827" lon="1.97031">
			<ele>172</ele>			<time>2025-02-27T19:14:54Z</time>
			</trkpt>
						<trkpt lat="48.6685" lon="1.97039">
			<ele>172</ele>			<time>2025-02-27T19:14:54Z</time>
			</trkpt>
						<trkpt lat="48.66882" lon="1.97053">
			<ele>171</ele>			<time>2025-02-27T19:14:54Z</time>
			</trkpt>
						<trkpt lat="48.66901" lon="1.97065">
			<ele>171</ele>			<time>2025-02-27T19:14:54Z</time>
			</trkpt>
						<trkpt lat="48.66997" lon="1.97134">
			<ele>168</ele>			<time>2025-02-27T19:14:54Z</time>
			</trkpt>
						<trkpt lat="48.67172" lon="1.97248">
			<ele>164</ele>			<time>2025-02-27T19:14:54Z</time>
			</trkpt>
						<trkpt lat="48.67158" lon="1.97306">
			<ele>166</ele>			<time>2025-02-27T19:14:54Z</time>
			</trkpt>
						<trkpt lat="48.67129" lon="1.97406">
			<ele>167</ele>			<time>2025-02-27T19:14:54Z</time>
			</trkpt>
						<trkpt lat="48.67132" lon="1.97541">
			<ele>166</ele>			<time>2025-02-27T19:14:54Z</time>
			</trkpt>
						<trkpt lat="48.67151" lon="1.97768">
			<ele>166</ele>			<time>2025-02-27T19:14:54Z</time>
			</trkpt>
						<trkpt lat="48.67156" lon="1.97785">
			<ele>166</ele>			<time>2025-02-27T19:14:54Z</time>
			</trkpt>
						<trkpt lat="48.67234" lon="1.97851">
			<ele>168</ele>			<time>2025-02-27T19:14:54Z</time>
			</trkpt>
						<trkpt lat="48.67082" lon="1.98238">
			<ele>168</ele>			<time>2025-02-27T19:14:54Z</time>
			</trkpt>
						<trkpt lat="48.67074" lon="1.98258">
			<ele>168</ele>			<time>2025-02-27T19:14:54Z</time>
			</trkpt>
						<trkpt lat="48.67114" lon="1.98298">
			<ele>169</ele>			<time>2025-02-27T19:14:54Z</time>
			</trkpt>
					</trkseg>
    </trk>
</gpx>