<?xml version="1.0" encoding="UTF-8" ?>
<gpx version="1.1" xmlns:xsi="http://www.w3.org/2001/XMLSchema-instance" 
    xmlns="http://www.topografix.com/GPX/1/1" 
    xsi:schemaLocation="http://www.topografix.com/GPX/1/1 http://www.topografix.com/GPX/1/1/gpx.xsd" 
    creator="Trail Péi - https://trailpei.run" >	<trk>
						<name>12227528-tp</name>
						<trkseg>
					<trkpt lat="45.594960" lon="6.863000">
						<ele>1211</ele>
						<time>2020-11-02T06:28:55Z</time>
					</trkpt>
					<trkpt lat="45.595000" lon="6.862500">
						<ele>1211</ele>
						<time>2020-11-02T06:29:13Z</time>
					</trkpt>
					<trkpt lat="45.595200" lon="6.862250">
						<ele>1207</ele>
						<time>2020-11-02T06:29:26Z</time>
					</trkpt>
					<trkpt lat="45.595150" lon="6.861990">
						<ele>1212</ele>
						<time>2020-11-02T06:29:35Z</time>
					</trkpt>
					<trkpt lat="45.594890" lon="6.862080">
						<ele>1222</ele>
						<time>2020-11-02T06:29:49Z</time>
					</trkpt>
					<trkpt lat="45.594700" lon="6.862330">
						<ele>1225</ele>
						<time>2020-11-02T06:30:02Z</time>
					</trkpt>
					<trkpt lat="45.594450" lon="6.862630">
						<ele>1229</ele>
						<time>2020-11-02T06:30:18Z</time>
					</trkpt>
					<trkpt lat="45.594240" lon="6.863110">
						<ele>1227</ele>
						<time>2020-11-02T06:30:38Z</time>
					</trkpt>
					<trkpt lat="45.594040" lon="6.863300">
						<ele>1230</ele>
						<time>2020-11-02T06:30:50Z</time>
					</trkpt>
					<trkpt lat="45.593830" lon="6.863510">
						<ele>1234</ele>
						<time>2020-11-02T06:31:03Z</time>
					</trkpt>
					<trkpt lat="45.593590" lon="6.863720">
						<ele>1239</ele>
						<time>2020-11-02T06:31:17Z</time>
					</trkpt>
					<trkpt lat="45.593270" lon="6.864010">
						<ele>1245</ele>
						<time>2020-11-02T06:31:36Z</time>
					</trkpt>
					<trkpt lat="45.592930" lon="6.864330">
						<ele>1250</ele>
						<time>2020-11-02T06:31:56Z</time>
					</trkpt>
					<trkpt lat="45.592710" lon="6.864430">
						<ele>1256</ele>
						<time>2020-11-02T06:32:08Z</time>
					</trkpt>
					<trkpt lat="45.592860" lon="6.864080">
						<ele>1259</ele>
						<time>2020-11-02T06:32:22Z</time>
					</trkpt>
					<trkpt lat="45.593110" lon="6.863500">
						<ele>1262</ele>
						<time>2020-11-02T06:32:46Z</time>
					</trkpt>
					<trkpt lat="45.593180" lon="6.863160">
						<ele>1267</ele>
						<time>2020-11-02T06:32:58Z</time>
					</trkpt>
					<trkpt lat="45.593260" lon="6.862750">
						<ele>1274</ele>
						<time>2020-11-02T06:33:13Z</time>
					</trkpt>
					<trkpt lat="45.593370" lon="6.862450">
						<ele>1276</ele>
						<time>2020-11-02T06:33:25Z</time>
					</trkpt>
					<trkpt lat="45.593500" lon="6.862130">
						<ele>1278</ele>
						<time>2020-11-02T06:33:38Z</time>
					</trkpt>
					<trkpt lat="45.593740" lon="6.861280">
						<ele>1290</ele>
						<time>2020-11-02T06:34:10Z</time>
					</trkpt>
					<trkpt lat="45.593870" lon="6.860830">
						<ele>1295</ele>
						<time>2020-11-02T06:34:27Z</time>
					</trkpt>
					<trkpt lat="45.593830" lon="6.860470">
						<ele>1305</ele>
						<time>2020-11-02T06:34:40Z</time>
					</trkpt>
					<trkpt lat="45.593780" lon="6.860030">
						<ele>1317</ele>
						<time>2020-11-02T06:34:56Z</time>
					</trkpt>
					<trkpt lat="45.593600" lon="6.859720">
						<ele>1331</ele>
						<time>2020-11-02T06:35:10Z</time>
					</trkpt>
					<trkpt lat="45.593340" lon="6.859270">
						<ele>1348</ele>
						<time>2020-11-02T06:35:30Z</time>
					</trkpt>
					<trkpt lat="45.593370" lon="6.858870">
						<ele>1360</ele>
						<time>2020-11-02T06:35:44Z</time>
					</trkpt>
					<trkpt lat="45.593420" lon="6.858290">
						<ele>1380</ele>
						<time>2020-11-02T06:36:05Z</time>
					</trkpt>
					<trkpt lat="45.593380" lon="6.857890">
						<ele>1392</ele>
						<time>2020-11-02T06:36:19Z</time>
					</trkpt>
					<trkpt lat="45.593330" lon="6.857270">
						<ele>1408</ele>
						<time>2020-11-02T06:36:41Z</time>
					</trkpt>
					<trkpt lat="45.593160" lon="6.857000">
						<ele>1418</ele>
						<time>2020-11-02T06:36:53Z</time>
					</trkpt>
					<trkpt lat="45.592110" lon="6.855410">
						<ele>1506</ele>
						<time>2020-11-02T06:38:10Z</time>
					</trkpt>
					<trkpt lat="45.591770" lon="6.854940">
						<ele>1532</ele>
						<time>2020-11-02T06:38:34Z</time>
					</trkpt>
					<trkpt lat="45.591470" lon="6.854420">
						<ele>1556</ele>
						<time>2020-11-02T06:38:57Z</time>
					</trkpt>
					<trkpt lat="45.591110" lon="6.853890">
						<ele>1578</ele>
						<time>2020-11-02T06:39:23Z</time>
					</trkpt>
					<trkpt lat="45.590890" lon="6.853540">
						<ele>1589</ele>
						<time>2020-11-02T06:39:40Z</time>
					</trkpt>
					<trkpt lat="45.590650" lon="6.853700">
						<ele>1602</ele>
						<time>2020-11-02T06:39:53Z</time>
					</trkpt>
					<trkpt lat="45.590380" lon="6.853890">
						<ele>1615</ele>
						<time>2020-11-02T06:40:08Z</time>
					</trkpt>
					<trkpt lat="45.590070" lon="6.853820">
						<ele>1631</ele>
						<time>2020-11-02T06:40:24Z</time>
					</trkpt>
					<trkpt lat="45.589480" lon="6.853700">
						<ele>1653</ele>
						<time>2020-11-02T06:40:53Z</time>
					</trkpt>
					<trkpt lat="45.589220" lon="6.853350">
						<ele>1668</ele>
						<time>2020-11-02T06:41:11Z</time>
					</trkpt>
					<trkpt lat="45.588970" lon="6.853000">
						<ele>1680</ele>
						<time>2020-11-02T06:41:29Z</time>
					</trkpt>
					<trkpt lat="45.588450" lon="6.852310">
						<ele>1707</ele>
						<time>2020-11-02T06:42:04Z</time>
					</trkpt>
					<trkpt lat="45.588560" lon="6.851680">
						<ele>1716</ele>
						<time>2020-11-02T06:42:27Z</time>
					</trkpt>
					<trkpt lat="45.587930" lon="6.852080">
						<ele>1731</ele>
						<time>2020-11-02T06:43:01Z</time>
					</trkpt>
					<trkpt lat="45.587380" lon="6.852420">
						<ele>1741</ele>
						<time>2020-11-02T06:43:31Z</time>
					</trkpt>
					<trkpt lat="45.587150" lon="6.852180">
						<ele>1756</ele>
						<time>2020-11-02T06:43:46Z</time>
					</trkpt>
					<trkpt lat="45.586790" lon="6.851810">
						<ele>1777</ele>
						<time>2020-11-02T06:44:08Z</time>
					</trkpt>
					<trkpt lat="45.586210" lon="6.851340">
						<ele>1815</ele>
						<time>2020-11-02T06:44:41Z</time>
					</trkpt>
					<trkpt lat="45.585780" lon="6.850990">
						<ele>1845</ele>
						<time>2020-11-02T06:45:06Z</time>
					</trkpt>
					<trkpt lat="45.585000" lon="6.848650">
						<ele>1942</ele>
						<time>2020-11-02T06:46:37Z</time>
					</trkpt>
					<trkpt lat="45.584770" lon="6.847940">
						<ele>1973</ele>
						<time>2020-11-02T06:47:04Z</time>
					</trkpt>
					<trkpt lat="45.584280" lon="6.846940">
						<ele>2018</ele>
						<time>2020-11-02T06:47:47Z</time>
					</trkpt>
					<trkpt lat="45.584100" lon="6.846560">
						<ele>2037</ele>
						<time>2020-11-02T06:48:03Z</time>
					</trkpt>
					<trkpt lat="45.583960" lon="6.846070">
						<ele>2056</ele>
						<time>2020-11-02T06:48:22Z</time>
					</trkpt>
					<trkpt lat="45.583920" lon="6.845840">
						<ele>2064</ele>
						<time>2020-11-02T06:48:30Z</time>
					</trkpt>
					<trkpt lat="45.583780" lon="6.845630">
						<ele>2075</ele>
						<time>2020-11-02T06:48:40Z</time>
					</trkpt>
					<trkpt lat="45.583800" lon="6.845370">
						<ele>2080</ele>
						<time>2020-11-02T06:48:49Z</time>
					</trkpt>
					<trkpt lat="45.583810" lon="6.845170">
						<ele>2084</ele>
						<time>2020-11-02T06:48:56Z</time>
					</trkpt>
					<trkpt lat="45.583720" lon="6.844970">
						<ele>2091</ele>
						<time>2020-11-02T06:49:05Z</time>
					</trkpt>
					<trkpt lat="45.583630" lon="6.844750">
						<ele>2097</ele>
						<time>2020-11-02T06:49:13Z</time>
					</trkpt>
					<trkpt lat="45.583510" lon="6.844590">
						<ele>2102</ele>
						<time>2020-11-02T06:49:22Z</time>
					</trkpt>
					<trkpt lat="45.583700" lon="6.843610">
						<ele>2114</ele>
						<time>2020-11-02T06:49:57Z</time>
					</trkpt>
					<trkpt lat="45.583480" lon="6.843370">
						<ele>2120</ele>
						<time>2020-11-02T06:50:11Z</time>
					</trkpt>
					<trkpt lat="45.583200" lon="6.843050">
						<ele>2127</ele>
						<time>2020-11-02T06:50:29Z</time>
					</trkpt>
					<trkpt lat="45.583100" lon="6.842740">
						<ele>2132</ele>
						<time>2020-11-02T06:50:41Z</time>
					</trkpt>
					<trkpt lat="45.582930" lon="6.842590">
						<ele>2138</ele>
						<time>2020-11-02T06:50:51Z</time>
					</trkpt>
					<trkpt lat="45.582730" lon="6.842700">
						<ele>2142</ele>
						<time>2020-11-02T06:51:02Z</time>
					</trkpt>
					<trkpt lat="45.582560" lon="6.842900">
						<ele>2146</ele>
						<time>2020-11-02T06:51:13Z</time>
					</trkpt>
					<trkpt lat="45.582400" lon="6.842900">
						<ele>2151</ele>
						<time>2020-11-02T06:51:21Z</time>
					</trkpt>
					<trkpt lat="45.582250" lon="6.842870">
						<ele>2157</ele>
						<time>2020-11-02T06:51:28Z</time>
					</trkpt>
					<trkpt lat="45.582110" lon="6.842870">
						<ele>2163</ele>
						<time>2020-11-02T06:51:35Z</time>
					</trkpt>
					<trkpt lat="45.582000" lon="6.842900">
						<ele>2167</ele>
						<time>2020-11-02T06:51:41Z</time>
					</trkpt>
					<trkpt lat="45.581870" lon="6.842930">
						<ele>2172</ele>
						<time>2020-11-02T06:51:48Z</time>
					</trkpt>
					<trkpt lat="45.581770" lon="6.842990">
						<ele>2177</ele>
						<time>2020-11-02T06:51:53Z</time>
					</trkpt>
					<trkpt lat="45.581670" lon="6.843200">
						<ele>2183</ele>
						<time>2020-11-02T06:52:02Z</time>
					</trkpt>
					<trkpt lat="45.581580" lon="6.843150">
						<ele>2187</ele>
						<time>2020-11-02T06:52:07Z</time>
					</trkpt>
					<trkpt lat="45.581370" lon="6.842930">
						<ele>2193</ele>
						<time>2020-11-02T06:52:20Z</time>
					</trkpt>
					<trkpt lat="45.581180" lon="6.842850">
						<ele>2200</ele>
						<time>2020-11-02T06:52:30Z</time>
					</trkpt>
					<trkpt lat="45.580950" lon="6.842730">
						<ele>2208</ele>
						<time>2020-11-02T06:52:42Z</time>
					</trkpt>
					<trkpt lat="45.580690" lon="6.842600">
						<ele>2215</ele>
						<time>2020-11-02T06:52:56Z</time>
					</trkpt>
					<trkpt lat="45.580240" lon="6.842510">
						<ele>2228</ele>
						<time>2020-11-02T06:53:18Z</time>
					</trkpt>
					<trkpt lat="45.579950" lon="6.842390">
						<ele>2234</ele>
						<time>2020-11-02T06:53:34Z</time>
					</trkpt>
					<trkpt lat="45.579680" lon="6.842420">
						<ele>2242</ele>
						<time>2020-11-02T06:53:47Z</time>
					</trkpt>
					<trkpt lat="45.579320" lon="6.842450">
						<ele>2253</ele>
						<time>2020-11-02T06:54:05Z</time>
					</trkpt>
					<trkpt lat="45.579060" lon="6.842430">
						<ele>2258</ele>
						<time>2020-11-02T06:54:18Z</time>
					</trkpt>
					<trkpt lat="45.578740" lon="6.842400">
						<ele>2262</ele>
						<time>2020-11-02T06:54:34Z</time>
					</trkpt>
					<trkpt lat="45.578490" lon="6.842360">
						<ele>2265</ele>
						<time>2020-11-02T06:54:47Z</time>
					</trkpt>
					<trkpt lat="45.578210" lon="6.842320">
						<ele>2266</ele>
						<time>2020-11-02T06:55:01Z</time>
					</trkpt>
					<trkpt lat="45.577580" lon="6.842340">
						<ele>2271</ele>
						<time>2020-11-02T06:55:32Z</time>
					</trkpt>
					<trkpt lat="45.577260" lon="6.842350">
						<ele>2275</ele>
						<time>2020-11-02T06:55:48Z</time>
					</trkpt>
					<trkpt lat="45.576930" lon="6.842410">
						<ele>2281</ele>
						<time>2020-11-02T06:56:05Z</time>
					</trkpt>
					<trkpt lat="45.576590" lon="6.842460">
						<ele>2288</ele>
						<time>2020-11-02T06:56:22Z</time>
					</trkpt>
					<trkpt lat="45.576080" lon="6.842540">
						<ele>2306</ele>
						<time>2020-11-02T06:56:48Z</time>
					</trkpt>
					<trkpt lat="45.574560" lon="6.842220">
						<ele>2355</ele>
						<time>2020-11-02T06:58:05Z</time>
					</trkpt>
					<trkpt lat="45.574020" lon="6.842100">
						<ele>2371</ele>
						<time>2020-11-02T06:58:32Z</time>
					</trkpt>
					<trkpt lat="45.573590" lon="6.842140">
						<ele>2390</ele>
						<time>2020-11-02T06:58:54Z</time>
					</trkpt>
					<trkpt lat="45.573070" lon="6.842000">
						<ele>2403</ele>
						<time>2020-11-02T06:59:20Z</time>
					</trkpt>
					<trkpt lat="45.572680" lon="6.841970">
						<ele>2412</ele>
						<time>2020-11-02T06:59:40Z</time>
					</trkpt>
					<trkpt lat="45.572400" lon="6.842080">
						<ele>2423</ele>
						<time>2020-11-02T06:59:54Z</time>
					</trkpt>
					<trkpt lat="45.571950" lon="6.842010">
						<ele>2426</ele>
						<time>2020-11-02T07:00:17Z</time>
					</trkpt>
					<trkpt lat="45.571720" lon="6.842260">
						<ele>2438</ele>
						<time>2020-11-02T07:00:31Z</time>
					</trkpt>
					<trkpt lat="45.571560" lon="6.842640">
						<ele>2450</ele>
						<time>2020-11-02T07:00:47Z</time>
					</trkpt>
					<trkpt lat="45.571400" lon="6.843150">
						<ele>2464</ele>
						<time>2020-11-02T07:01:06Z</time>
					</trkpt>
					<trkpt lat="45.571200" lon="6.843370">
						<ele>2472</ele>
						<time>2020-11-02T07:01:19Z</time>
					</trkpt>
					<trkpt lat="45.570740" lon="6.843850">
						<ele>2486</ele>
						<time>2020-11-02T07:01:48Z</time>
					</trkpt>
					<trkpt lat="45.570440" lon="6.844160">
						<ele>2495</ele>
						<time>2020-11-02T07:02:06Z</time>
					</trkpt>
					<trkpt lat="45.570320" lon="6.844550">
						<ele>2504</ele>
						<time>2020-11-02T07:02:21Z</time>
					</trkpt>
					<trkpt lat="45.570120" lon="6.845200">
						<ele>2521</ele>
						<time>2020-11-02T07:02:46Z</time>
					</trkpt>
					<trkpt lat="45.569970" lon="6.845500">
						<ele>2532</ele>
						<time>2020-11-02T07:02:59Z</time>
					</trkpt>
					<trkpt lat="45.569790" lon="6.845860">
						<ele>2543</ele>
						<time>2020-11-02T07:03:14Z</time>
					</trkpt>
					<trkpt lat="45.569540" lon="6.846110">
						<ele>2549</ele>
						<time>2020-11-02T07:03:30Z</time>
					</trkpt>
					<trkpt lat="45.569120" lon="6.846550">
						<ele>2565</ele>
						<time>2020-11-02T07:03:56Z</time>
					</trkpt>
					<trkpt lat="45.567750" lon="6.847470">
						<ele>2600</ele>
						<time>2020-11-02T07:05:11Z</time>
					</trkpt>
					<trkpt lat="45.567400" lon="6.847720">
						<ele>2606</ele>
						<time>2020-11-02T07:05:31Z</time>
					</trkpt>
					<trkpt lat="45.567190" lon="6.847940">
						<ele>2610</ele>
						<time>2020-11-02T07:05:44Z</time>
					</trkpt>
					<trkpt lat="45.566960" lon="6.848210">
						<ele>2618</ele>
						<time>2020-11-02T07:05:59Z</time>
					</trkpt>
					<trkpt lat="45.566590" lon="6.848440">
						<ele>2626</ele>
						<time>2020-11-02T07:06:19Z</time>
					</trkpt>
					<trkpt lat="45.566340" lon="6.848630">
						<ele>2635</ele>
						<time>2020-11-02T07:06:33Z</time>
					</trkpt>
					<trkpt lat="45.565950" lon="6.848920">
						<ele>2649</ele>
						<time>2020-11-02T07:06:55Z</time>
					</trkpt>
					<trkpt lat="45.565300" lon="6.848900">
						<ele>2664</ele>
						<time>2020-11-02T07:07:28Z</time>
					</trkpt>
					<trkpt lat="45.564920" lon="6.848890">
						<ele>2673</ele>
						<time>2020-11-02T07:07:47Z</time>
					</trkpt>
					<trkpt lat="45.564630" lon="6.848890">
						<ele>2681</ele>
						<time>2020-11-02T07:08:01Z</time>
					</trkpt>
					<trkpt lat="45.564210" lon="6.848890">
						<ele>2692</ele>
						<time>2020-11-02T07:08:22Z</time>
					</trkpt>
					<trkpt lat="45.563560" lon="6.849170">
						<ele>2729</ele>
						<time>2020-11-02T07:08:56Z</time>
					</trkpt>
					<trkpt lat="45.563170" lon="6.849130">
						<ele>2748</ele>
						<time>2020-11-02T07:09:16Z</time>
					</trkpt>
					<trkpt lat="45.562950" lon="6.848960">
						<ele>2759</ele>
						<time>2020-11-02T07:09:28Z</time>
					</trkpt>
					<trkpt lat="45.562700" lon="6.848750">
						<ele>2772</ele>
						<time>2020-11-02T07:09:43Z</time>
					</trkpt>
					<trkpt lat="45.562380" lon="6.848260">
						<ele>2784</ele>
						<time>2020-11-02T07:10:06Z</time>
					</trkpt>
					<trkpt lat="45.562080" lon="6.847230">
						<ele>2765</ele>
						<time>2020-11-02T07:10:46Z</time>
					</trkpt>
					<trkpt lat="45.561790" lon="6.847270">
						<ele>2781</ele>
						<time>2020-11-02T07:11:00Z</time>
					</trkpt>
					<trkpt lat="45.561530" lon="6.847500">
						<ele>2798</ele>
						<time>2020-11-02T07:11:15Z</time>
					</trkpt>
					<trkpt lat="45.561030" lon="6.847940">
						<ele>2814</ele>
						<time>2020-11-02T07:11:45Z</time>
					</trkpt>
					<trkpt lat="45.560250" lon="6.848520">
						<ele>2843</ele>
						<time>2020-11-02T07:12:29Z</time>
					</trkpt>
					<trkpt lat="45.560030" lon="6.848670">
						<ele>2850</ele>
						<time>2020-11-02T07:12:41Z</time>
					</trkpt>
					<trkpt lat="45.559800" lon="6.848820">
						<ele>2861</ele>
						<time>2020-11-02T07:12:54Z</time>
					</trkpt>
					<trkpt lat="45.559540" lon="6.848790">
						<ele>2863</ele>
						<time>2020-11-02T07:13:07Z</time>
					</trkpt>
					<trkpt lat="45.559230" lon="6.848750">
						<ele>2865</ele>
						<time>2020-11-02T07:13:22Z</time>
					</trkpt>
					<trkpt lat="45.558310" lon="6.849530">
						<ele>2912</ele>
						<time>2020-11-02T07:14:16Z</time>
					</trkpt>
					<trkpt lat="45.557980" lon="6.849810">
						<ele>2933</ele>
						<time>2020-11-02T07:14:35Z</time>
					</trkpt>
					<trkpt lat="45.556580" lon="6.850700">
						<ele>2995</ele>
						<time>2020-11-02T07:15:52Z</time>
					</trkpt>
					<trkpt lat="45.556140" lon="6.850980">
						<ele>3009</ele>
						<time>2020-11-02T07:16:16Z</time>
					</trkpt>
					<trkpt lat="45.555880" lon="6.851010">
						<ele>3015</ele>
						<time>2020-11-02T07:16:29Z</time>
					</trkpt>
					<trkpt lat="45.555550" lon="6.851060">
						<ele>3028</ele>
						<time>2020-11-02T07:16:46Z</time>
					</trkpt>
					<trkpt lat="45.555300" lon="6.851110">
						<ele>3038</ele>
						<time>2020-11-02T07:16:58Z</time>
					</trkpt>
					<trkpt lat="45.554980" lon="6.851170">
						<ele>3052</ele>
						<time>2020-11-02T07:17:14Z</time>
					</trkpt>
					<trkpt lat="45.554780" lon="6.850220">
						<ele>3049</ele>
						<time>2020-11-02T07:17:49Z</time>
					</trkpt>
					<trkpt lat="45.554610" lon="6.849370">
						<ele>3055</ele>
						<time>2020-11-02T07:18:20Z</time>
					</trkpt>
					<trkpt lat="45.554890" lon="6.848450">
						<ele>3050</ele>
						<time>2020-11-02T07:18:55Z</time>
					</trkpt>
					<trkpt lat="45.555180" lon="6.847550">
						<ele>3047</ele>
						<time>2020-11-02T07:19:30Z</time>
					</trkpt>
					<trkpt lat="45.555200" lon="6.847180">
						<ele>3041</ele>
						<time>2020-11-02T07:19:43Z</time>
					</trkpt>
					<trkpt lat="45.555230" lon="6.846690">
						<ele>3030</ele>
						<time>2020-11-02T07:20:00Z</time>
					</trkpt>
					<trkpt lat="45.553770" lon="6.847260">
						<ele>3097</ele>
						<time>2020-11-02T07:21:16Z</time>
					</trkpt>
					<trkpt lat="45.553370" lon="6.847410">
						<ele>3117</ele>
						<time>2020-11-02T07:21:37Z</time>
					</trkpt>
					<trkpt lat="45.553100" lon="6.847270">
						<ele>3125</ele>
						<time>2020-11-02T07:21:51Z</time>
					</trkpt>
					<trkpt lat="45.552690" lon="6.847040">
						<ele>3134</ele>
						<time>2020-11-02T07:22:13Z</time>
					</trkpt>
					<trkpt lat="45.552790" lon="6.847360">
						<ele>3142</ele>
						<time>2020-11-02T07:22:25Z</time>
					</trkpt>
					<trkpt lat="45.552960" lon="6.847800">
						<ele>3146</ele>
						<time>2020-11-02T07:22:43Z</time>
					</trkpt>
					<trkpt lat="45.552910" lon="6.847930">
						<ele>3151</ele>
						<time>2020-11-02T07:22:48Z</time>
					</trkpt>
					<trkpt lat="45.552550" lon="6.847710">
						<ele>3165</ele>
						<time>2020-11-02T07:23:08Z</time>
					</trkpt>
					<trkpt lat="45.552500" lon="6.847910">
						<ele>3174</ele>
						<time>2020-11-02T07:23:15Z</time>
					</trkpt>
					<trkpt lat="45.552810" lon="6.848730">
						<ele>3169</ele>
						<time>2020-11-02T07:23:48Z</time>
					</trkpt>
					<trkpt lat="45.552290" lon="6.848400">
						<ele>3190</ele>
						<time>2020-11-02T07:24:16Z</time>
					</trkpt>
					<trkpt lat="45.551940" lon="6.848280">
						<ele>3196</ele>
						<time>2020-11-02T07:24:34Z</time>
					</trkpt>
					<trkpt lat="45.552290" lon="6.848400">
						<ele>3190</ele>
						<time>2020-11-02T07:24:52Z</time>
					</trkpt>
					<trkpt lat="45.551940" lon="6.848280">
						<ele>3196</ele>
						<time>2020-11-02T07:25:10Z</time>
					</trkpt>
					<trkpt lat="45.551690" lon="6.847930">
						<ele>3194</ele>
						<time>2020-11-02T07:25:28Z</time>
					</trkpt>
					</trkseg>
				</trk>
			</gpx>